<?xml version="1.0" encoding="UTF-8"?>
<osm version="0.6" generator="Overpass API 0.7.62.8 e802775f">
<note>The data included in this document is from www.openstreetmap.org. The data is made available under ODbL.</note>
<meta osm_base="2026-01-18T02:04:14Z"/>

  <node id="325324726" lat="42.3483073" lon="-71.0742414"/>
  <node id="325325244" lat="42.3483215" lon="-71.0743241"/>
  <node id="325328925" lat="42.3482672" lon="-71.0743178"/>
  <node id="325336313" lat="42.3483030" lon="-71.0742400"/>
  <node id="325336746" lat="42.3483245" lon="-71.0743197"/>
  <node id="325337518" lat="42.3482602" lon="-71.0742838"/>
  <node id="325339059" lat="42.3482701" lon="-71.0743223"/>
  <node id="325347184" lat="42.3483154" lon="-71.0742464"/>
  <node id="325347783" lat="42.3483327" lon="-71.0742923"/>
  <node id="325373428" lat="42.3483180" lon="-71.0743280"/>
  <node id="325374745" lat="42.3483114" lon="-71.0742435"/>
  <node id="325390280" lat="42.3482684" lon="-71.0742571"/>
  <node id="325422585" lat="42.3482868" lon="-71.0742409"/>
  <node id="325424146" lat="42.3483309" lon="-71.0743040"/>
  <node id="325461453" lat="42.3482825" lon="-71.0742429"/>
  <node id="325470069" lat="42.3483321" lon="-71.0742983"/>
  <node id="325733500" lat="42.3482748" lon="-71.0742488"/>
  <node id="325750369" lat="42.3513698" lon="-71.0745106"/>
  <node id="325773162" lat="42.3482956" lon="-71.0742392"/>
  <node id="325775841" lat="42.3482714" lon="-71.0742527"/>
  <node id="325824070" lat="42.3482912" lon="-71.0742397"/>
  <node id="325824632" lat="42.3482972" lon="-71.0743376"/>
  <node id="325826689" lat="42.3483292" lon="-71.0743096"/>
  <node id="325830835" lat="42.3483314" lon="-71.0742744"/>
  <node id="325831437" lat="42.3482850" lon="-71.0743351"/>
  <node id="325849285" lat="42.3482609" lon="-71.0742779"/>
  <node id="325876887" lat="42.3483298" lon="-71.0742688"/>
  <node id="325877292" lat="42.3482894" lon="-71.0743367"/>
  <node id="325882858" lat="42.3482786" lon="-71.0742455"/>
  <node id="325913618" lat="42.3483143" lon="-71.0743313"/>
  <node id="325914260" lat="42.3483328" lon="-71.0742862"/>
  <node id="325920808" lat="42.3482635" lon="-71.0742672"/>
  <node id="325923383" lat="42.3482628" lon="-71.0743073"/>
  <node id="325938094" lat="42.3483323" lon="-71.0742803"/>
  <node id="325938841" lat="42.3482809" lon="-71.0743328"/>
  <node id="325941143" lat="42.3482621" lon="-71.0742720"/>
  <node id="325943015" lat="42.3482648" lon="-71.0743127"/>
  <node id="325960190" lat="42.3483224" lon="-71.0742539"/>
  <node id="325960397" lat="42.3483060" lon="-71.0743358"/>
  <node id="325966567" lat="42.3482604" lon="-71.0742957"/>
  <node id="325975063" lat="42.3483190" lon="-71.0742498"/>
  <node id="325975126" lat="42.3483102" lon="-71.0743339"/>
  <node id="325977804" lat="42.3482658" lon="-71.0742619"/>
  <node id="325980305" lat="42.3482613" lon="-71.0743017"/>
  <node id="326000148" lat="42.3482600" lon="-71.0742898"/>
  <node id="326009066" lat="42.3483278" lon="-71.0742633"/>
  <node id="326012551" lat="42.3483271" lon="-71.0743148"/>
  <node id="326032531" lat="42.3513026" lon="-71.0741908"/>
  <node id="326049519" lat="42.3515044" lon="-71.0742926"/>
  <node id="326058161" lat="42.3482734" lon="-71.0743265"/>
  <node id="326059656" lat="42.3514256" lon="-71.0745766"/>
  <node id="326073637" lat="42.3483253" lon="-71.0742584"/>
  <node id="326074116" lat="42.3483017" lon="-71.0743371"/>
  <node id="326080582" lat="42.3482770" lon="-71.0743299"/>
  <node id="326164298" lat="42.3513606" lon="-71.0745438"/>
  <node id="2482578962" lat="42.3512332" lon="-71.0744413"/>
  <node id="2482614655" lat="42.3537614" lon="-71.0745479"/>
  <node id="2482614657" lat="42.3537762" lon="-71.0744822"/>
  <node id="2482614665" lat="42.3537818" lon="-71.0744657"/>
  <node id="2482614667" lat="42.3537921" lon="-71.0745616"/>
  <node id="2482614671" lat="42.3538119" lon="-71.0745709"/>
  <node id="2482614673" lat="42.3538323" lon="-71.0744887"/>
  <node id="3049442534" lat="42.3502572" lon="-71.0950452"/>
  <node id="3049442535" lat="42.3500812" lon="-71.0950507"/>
  <node id="6532896192" lat="42.3449839" lon="-71.0904777"/>
  <node id="6532896193" lat="42.3449528" lon="-71.0902723"/>
  <node id="6533298131" lat="42.3449651" lon="-71.0897869"/>
  <node id="6533298132" lat="42.3449893" lon="-71.0899448"/>
  <way id="29615821">
    <nd ref="326000148"/>
    <nd ref="325337518"/>
    <nd ref="325849285"/>
    <nd ref="325941143"/>
    <nd ref="325920808"/>
    <nd ref="325977804"/>
    <nd ref="325390280"/>
    <nd ref="325775841"/>
    <nd ref="325733500"/>
    <nd ref="325882858"/>
    <nd ref="325461453"/>
    <nd ref="325422585"/>
    <nd ref="325824070"/>
    <nd ref="325773162"/>
    <nd ref="325336313"/>
    <nd ref="325324726"/>
    <nd ref="325374745"/>
    <nd ref="325347184"/>
    <nd ref="325975063"/>
    <nd ref="325960190"/>
    <nd ref="326073637"/>
    <nd ref="326009066"/>
    <nd ref="325876887"/>
    <nd ref="325830835"/>
    <nd ref="325938094"/>
    <nd ref="325914260"/>
    <nd ref="325347783"/>
    <nd ref="325470069"/>
    <nd ref="325424146"/>
    <nd ref="325826689"/>
    <nd ref="326012551"/>
    <nd ref="325336746"/>
    <nd ref="325325244"/>
    <nd ref="325373428"/>
    <nd ref="325913618"/>
    <nd ref="325975126"/>
    <nd ref="325960397"/>
    <nd ref="326074116"/>
    <nd ref="325824632"/>
    <nd ref="325877292"/>
    <nd ref="325831437"/>
    <nd ref="325938841"/>
    <nd ref="326080582"/>
    <nd ref="326058161"/>
    <nd ref="325339059"/>
    <nd ref="325328925"/>
    <nd ref="325943015"/>
    <nd ref="325923383"/>
    <nd ref="325980305"/>
    <nd ref="325966567"/>
    <nd ref="326000148"/>
  </way>
  <way id="29627387">
    <nd ref="326032531"/>
    <nd ref="326049519"/>
    <nd ref="326059656"/>
    <nd ref="326164298"/>
    <nd ref="325750369"/>
    <nd ref="2482578962"/>
    <nd ref="326032531"/>
  </way>
  <way id="240533281">
    <nd ref="2482614671"/>
    <nd ref="2482614673"/>
    <nd ref="2482614665"/>
    <nd ref="2482614657"/>
    <nd ref="2482614655"/>
    <nd ref="2482614667"/>
    <nd ref="2482614671"/>
  </way>
  <way id="695727790">
    <nd ref="6532896193"/>
    <nd ref="6532896192"/>
  </way>
  <way id="695763122">
    <nd ref="6533298132"/>
    <nd ref="6533298131"/>
  </way>
  <way id="696463848">
    <nd ref="3049442534"/>
    <nd ref="3049442535"/>
  </way>

</osm>
