<?xml version="1.0" encoding="UTF-8"?>
<osm version="0.6" generator="Overpass API 0.7.62.8 e802775f">
<note>The data included in this document is from www.openstreetmap.org. The data is made available under ODbL.</note>
<meta osm_base="2026-01-18T01:56:55Z"/>

  <node id="20217391" lat="41.8858756" lon="-87.6381043"/>
  <node id="20217438" lat="41.8805312" lon="-87.6379559">
    <tag k="source" v="PGS"/>
  </node>
  <node id="20217442" lat="41.8790618" lon="-87.6377402">
    <tag k="addr:city" v="Chicago"/>
    <tag k="addr:housenumber" v="200"/>
    <tag k="addr:state" v="IL"/>
    <tag k="addr:street" v="South Upper Wacker Drive"/>
    <tag k="amenity" v="ferry_terminal"/>
    <tag k="ferry" v="yes"/>
    <tag k="name" v="Union Station/Willis Tower"/>
    <tag k="network" v="Shoreline Water Taxi"/>
    <tag k="operator" v="Shoreline Water Taxi"/>
    <tag k="public_transport" v="station"/>
    <tag k="website" v="https://shorelinesightseeing.com/water-taxis/union-station-willis-tower/"/>
  </node>
  <node id="20217443" lat="41.8786164" lon="-87.6375719">
    <tag k="source" v="PGS"/>
  </node>
  <node id="20217534" lat="41.8728156" lon="-87.6352937"/>
  <node id="20217535" lat="41.8721839" lon="-87.6351545"/>
  <node id="269702679" lat="41.8515588" lon="-87.6104938"/>
  <node id="269702680" lat="41.8510823" lon="-87.6126315"/>
  <node id="704745514" lat="41.8755590" lon="-87.6370559"/>
  <node id="992938694" lat="41.8825293" lon="-87.6386093"/>
  <node id="992938699" lat="41.8828394" lon="-87.6385635"/>
  <node id="992939179" lat="41.8858775" lon="-87.6373423"/>
  <node id="1427745586" lat="41.8514763" lon="-87.6108668"/>
  <node id="1427745620" lat="41.8511898" lon="-87.6121497"/>
  <node id="1427745715" lat="41.8511737" lon="-87.6122221">
    <tag k="amenity" v="loading_dock"/>
  </node>
  <node id="1605630581" lat="41.8781682" lon="-87.6374071"/>
  <node id="1622275023" lat="41.8829510" lon="-87.6385465"/>
  <node id="1699197189" lat="41.8706143" lon="-87.6355655"/>
  <node id="1699197191" lat="41.8707010" lon="-87.6348632"/>
  <node id="1699197193" lat="41.8707549" lon="-87.6356084"/>
  <node id="1699197206" lat="41.8715069" lon="-87.6345507"/>
  <node id="1699197208" lat="41.8721978" lon="-87.6352172"/>
  <node id="1699197209" lat="41.8719606" lon="-87.6358023"/>
  <node id="1699197211" lat="41.8720043" lon="-87.6346255"/>
  <node id="1699197218" lat="41.8721913" lon="-87.6358815"/>
  <node id="1699197222" lat="41.8740456" lon="-87.6355548"/>
  <node id="1699197228" lat="41.8742884" lon="-87.6363382"/>
  <node id="1699197237" lat="41.8745611" lon="-87.6363460"/>
  <node id="1699197238" lat="41.8748029" lon="-87.6357652"/>
  <node id="1699197239" lat="41.8749474" lon="-87.6358279"/>
  <node id="1699197241" lat="41.8750634" lon="-87.6358795"/>
  <node id="1699197242" lat="41.8751044" lon="-87.6366855"/>
  <node id="1699197243" lat="41.8752125" lon="-87.6359532"/>
  <node id="1699197244" lat="41.8752800" lon="-87.6360039"/>
  <node id="1699197251" lat="41.8754406" lon="-87.6370505"/>
  <node id="1699197258" lat="41.8753742" lon="-87.6360988"/>
  <node id="1699197259" lat="41.8754237" lon="-87.6361018"/>
  <node id="1699197260" lat="41.8754228" lon="-87.6362007"/>
  <node id="1699197261" lat="41.8756261" lon="-87.6370575"/>
  <node id="1699197264" lat="41.8757872" lon="-87.6364718"/>
  <node id="1699197266" lat="41.8758212" lon="-87.6372121"/>
  <node id="1699197275" lat="41.8758203" lon="-87.6373001"/>
  <node id="1699197277" lat="41.8761381" lon="-87.6375428"/>
  <node id="1699197282" lat="41.8762139" lon="-87.6367893"/>
  <node id="1699197285" lat="41.8765711" lon="-87.6377908"/>
  <node id="1699197287" lat="41.8766251" lon="-87.6370487"/>
  <node id="1699197289" lat="41.8766928" lon="-87.6378004"/>
  <node id="1699197308" lat="41.8768938" lon="-87.6379905"/>
  <node id="1699197313" lat="41.8769199" lon="-87.6370704"/>
  <node id="1699197316" lat="41.8769200" lon="-87.6371298"/>
  <node id="1699197319" lat="41.8771473" lon="-87.6379151"/>
  <node id="1699197336" lat="41.8773211" lon="-87.6372361"/>
  <node id="1699197355" lat="41.8775016" lon="-87.6372935"/>
  <node id="1699197358" lat="41.8775002" lon="-87.6373138"/>
  <node id="1699197366" lat="41.8776140" lon="-87.6381221"/>
  <node id="1699197376" lat="41.8779464" lon="-87.6373405"/>
  <node id="1699197377" lat="41.8779638" lon="-87.6380481"/>
  <node id="1699197378" lat="41.8779456" lon="-87.6373969"/>
  <node id="1699197384" lat="41.8781630" lon="-87.6374052"/>
  <node id="1699197437" lat="41.8794391" lon="-87.6378031"/>
  <node id="1699197440" lat="41.8794644" lon="-87.6384348"/>
  <node id="1699197443" lat="41.8794617" lon="-87.6385550"/>
  <node id="1699197448" lat="41.8796369" lon="-87.6385579"/>
  <node id="1699197471" lat="41.8797603" lon="-87.6385734"/>
  <node id="1699197474" lat="41.8800831" lon="-87.6386252"/>
  <node id="1699197483" lat="41.8804912" lon="-87.6385610"/>
  <node id="1699197484" lat="41.8804891" lon="-87.6386626"/>
  <node id="1699197529" lat="41.8806991" lon="-87.6385696"/>
  <node id="1699197533" lat="41.8807046" lon="-87.6386728"/>
  <node id="1699197541" lat="41.8808388" lon="-87.6386737"/>
  <node id="1699197591" lat="41.8817337" lon="-87.6386369"/>
  <node id="1699197679" lat="41.8831019" lon="-87.6385717"/>
  <node id="1699197729" lat="41.8834361" lon="-87.6384570"/>
  <node id="1699197752" lat="41.8843421" lon="-87.6382870"/>
  <node id="1699197759" lat="41.8845749" lon="-87.6375619"/>
  <node id="1699197783" lat="41.8845722" lon="-87.6382834"/>
  <node id="1699197786" lat="41.8850498" lon="-87.6382037"/>
  <node id="1699197789" lat="41.8850822" lon="-87.6374782"/>
  <node id="1699197793" lat="41.8852565" lon="-87.6381738"/>
  <node id="1699197795" lat="41.8852622" lon="-87.6374452"/>
  <node id="1699197829" lat="41.8856154" lon="-87.6381809"/>
  <node id="1699197833" lat="41.8856390" lon="-87.6373432"/>
  <node id="2040510172" lat="41.8514859" lon="-87.6108237">
    <tag k="amenity" v="loading_dock"/>
  </node>
  <node id="2148393344" lat="41.8521134" lon="-87.6130286"/>
  <node id="2207543038" lat="41.8766600" lon="-87.6370611"/>
  <node id="2207543045" lat="41.8767092" lon="-87.6370626"/>
  <node id="2271900761" lat="41.8817134" lon="-87.6379066"/>
  <node id="2271900771" lat="41.8808004" lon="-87.6379275"/>
  <node id="2271900784" lat="41.8810124" lon="-87.6379323"/>
  <node id="2271900801" lat="41.8815002" lon="-87.6379047"/>
  <node id="2392353577" lat="41.8541910" lon="-87.6138508">
    <tag k="entrance" v="yes"/>
  </node>
  <node id="2392353579" lat="41.8515319" lon="-87.6106092">
    <tag k="entrance" v="yes"/>
  </node>
  <node id="2392353580" lat="41.8511084" lon="-87.6125144">
    <tag k="entrance" v="yes"/>
  </node>
  <node id="3104991259" lat="41.8721022" lon="-87.6352253"/>
  <node id="3104991260" lat="41.8721023" lon="-87.6351324"/>
  <node id="3104991261" lat="41.8719620" lon="-87.6351138"/>
  <node id="3104991292" lat="41.8713335" lon="-87.6350266"/>
  <node id="3104991307" lat="41.8707506" lon="-87.6344336"/>
  <node id="3104991322" lat="41.8707353" lon="-87.6344313"/>
  <node id="4035488045" lat="41.8743473" lon="-87.6355922"/>
  <node id="4035488063" lat="41.8743158" lon="-87.6355907"/>
  <node id="4942700586" lat="41.8796090" lon="-87.6385707"/>
  <node id="4942700587" lat="41.8797844" lon="-87.6385886"/>
  <node id="4942700589" lat="41.8814265" lon="-87.6386557"/>
  <node id="4990660934" lat="41.8833101" lon="-87.6385361"/>
  <node id="6113443153" lat="41.8750246" lon="-87.6366429"/>
  <node id="6423868621" lat="41.8843095" lon="-87.6375980"/>
  <node id="6624582799" lat="41.8769048" lon="-87.6370693"/>
  <node id="6624582800" lat="41.8767181" lon="-87.6370627"/>
  <node id="6987861770" lat="41.8743575" lon="-87.6363422"/>
  <node id="6987861771" lat="41.8743455" lon="-87.6356924"/>
  <node id="6987861772" lat="41.8745528" lon="-87.6356979"/>
  <node id="6987861777" lat="41.8758093" lon="-87.6372016"/>
  <node id="6987861778" lat="41.8757946" lon="-87.6371872"/>
  <node id="6987861780" lat="41.8757944" lon="-87.6372013"/>
  <node id="6987861781" lat="41.8758092" lon="-87.6372119"/>
  <node id="6987861782" lat="41.8758386" lon="-87.6373004"/>
  <node id="6987861783" lat="41.8758381" lon="-87.6373534"/>
  <node id="6987861784" lat="41.8754763" lon="-87.6370517"/>
  <node id="6987903186" lat="41.8757804" lon="-87.6371722"/>
  <node id="6987903191" lat="41.8757803" lon="-87.6371869"/>
  <node id="6987914951" lat="41.8745602" lon="-87.6364140"/>
  <node id="6987914954" lat="41.8735805" lon="-87.6361905"/>
  <node id="6988089325" lat="41.8754123" lon="-87.6361396"/>
  <node id="6988089326" lat="41.8754123" lon="-87.6361560"/>
  <node id="6988089327" lat="41.8754018" lon="-87.6361643"/>
  <node id="6988089328" lat="41.8753906" lon="-87.6361549"/>
  <node id="6988089329" lat="41.8753911" lon="-87.6361395"/>
  <node id="6988089331" lat="41.8754002" lon="-87.6361311"/>
  <node id="6988089332" lat="41.8746233" lon="-87.6363666"/>
  <node id="6988089333" lat="41.8746207" lon="-87.6363633"/>
  <node id="6988089335" lat="41.8746174" lon="-87.6363614"/>
  <node id="6988089336" lat="41.8746065" lon="-87.6363858"/>
  <node id="6988089337" lat="41.8746094" lon="-87.6363888"/>
  <node id="6988089338" lat="41.8746130" lon="-87.6363903"/>
  <node id="6988089339" lat="41.8758775" lon="-87.6372451"/>
  <node id="6988089340" lat="41.8758784" lon="-87.6372276"/>
  <node id="6988089341" lat="41.8758680" lon="-87.6372183"/>
  <node id="6988089342" lat="41.8758576" lon="-87.6372241"/>
  <node id="6988089343" lat="41.8758567" lon="-87.6372416"/>
  <node id="6988089344" lat="41.8758662" lon="-87.6372521"/>
  <node id="6988089345" lat="41.8760016" lon="-87.6366318"/>
  <node id="6988089346" lat="41.8766313" lon="-87.6370333"/>
  <node id="6988089374" lat="41.8770061" lon="-87.6380347"/>
  <node id="6988089375" lat="41.8770434" lon="-87.6378664"/>
  <node id="6988089376" lat="41.8771482" lon="-87.6379057"/>
  <node id="6988089377" lat="41.8771670" lon="-87.6379085"/>
  <node id="6988089380" lat="41.8772158" lon="-87.6379166"/>
  <node id="6988089381" lat="41.8773247" lon="-87.6379373"/>
  <node id="6988089382" lat="41.8773244" lon="-87.6379452"/>
  <node id="6988114186" lat="41.8774144" lon="-87.6381013"/>
  <node id="6988114199" lat="41.8776772" lon="-87.6373462"/>
  <node id="6988114206" lat="41.8769710" lon="-87.6377769"/>
  <node id="6988114207" lat="41.8769701" lon="-87.6377826"/>
  <node id="6988114208" lat="41.8769678" lon="-87.6377876"/>
  <node id="6988114209" lat="41.8769454" lon="-87.6377770"/>
  <node id="6988114210" lat="41.8769460" lon="-87.6377715"/>
  <node id="6988114211" lat="41.8769477" lon="-87.6377666"/>
  <node id="6988114212" lat="41.8766696" lon="-87.6377116"/>
  <node id="6988114213" lat="41.8766688" lon="-87.6377055"/>
  <node id="6988114214" lat="41.8766666" lon="-87.6377002"/>
  <node id="6988114215" lat="41.8766429" lon="-87.6377105"/>
  <node id="6988114216" lat="41.8766434" lon="-87.6377161"/>
  <node id="6988114217" lat="41.8766451" lon="-87.6377213"/>
  <node id="6988114221" lat="41.8782015" lon="-87.6380615"/>
  <node id="6988114256" lat="41.8791904" lon="-87.6377888"/>
  <node id="6988114259" lat="41.8805104" lon="-87.6379414"/>
  <node id="6988114275" lat="41.8794633" lon="-87.6384885"/>
  <node id="6988114276" lat="41.8794642" lon="-87.6384460"/>
  <node id="6988114277" lat="41.8794539" lon="-87.6384344"/>
  <node id="6988114278" lat="41.8794361" lon="-87.6384337"/>
  <node id="6988114377" lat="41.8794257" lon="-87.6384333"/>
  <node id="6988114383" lat="41.8805161" lon="-87.6385460"/>
  <node id="6988114384" lat="41.8805158" lon="-87.6385618"/>
  <node id="6988114385" lat="41.8807050" lon="-87.6385698"/>
  <node id="6988114396" lat="41.8804689" lon="-87.6385369"/>
  <node id="6988114397" lat="41.8804604" lon="-87.6385504"/>
  <node id="6988114398" lat="41.8804520" lon="-87.6385490"/>
  <node id="6988114399" lat="41.8804474" lon="-87.6385345"/>
  <node id="6988114400" lat="41.8804527" lon="-87.6385248"/>
  <node id="6988114401" lat="41.8804641" lon="-87.6385254"/>
  <node id="6988114402" lat="41.8804329" lon="-87.6386023"/>
  <node id="6988114403" lat="41.8804289" lon="-87.6385938"/>
  <node id="6988114404" lat="41.8804210" lon="-87.6385930"/>
  <node id="6988114405" lat="41.8804171" lon="-87.6386018"/>
  <node id="6988114406" lat="41.8804224" lon="-87.6386115"/>
  <node id="6988114407" lat="41.8804288" lon="-87.6386115"/>
  <node id="6988114408" lat="41.8807566" lon="-87.6385498"/>
  <node id="6988114409" lat="41.8807498" lon="-87.6385655"/>
  <node id="6988114410" lat="41.8807366" lon="-87.6385664"/>
  <node id="6988114411" lat="41.8807287" lon="-87.6385513"/>
  <node id="6988114412" lat="41.8807366" lon="-87.6385336"/>
  <node id="6988114413" lat="41.8807495" lon="-87.6385345"/>
  <node id="6988114414" lat="41.8807847" lon="-87.6386083"/>
  <node id="6988114415" lat="41.8807803" lon="-87.6386002"/>
  <node id="6988114416" lat="41.8807741" lon="-87.6385988"/>
  <node id="6988114417" lat="41.8807682" lon="-87.6386071"/>
  <node id="6988114418" lat="41.8807722" lon="-87.6386159"/>
  <node id="6988114419" lat="41.8807792" lon="-87.6386168"/>
  <node id="6988130939" lat="41.8822311" lon="-87.6386241"/>
  <node id="6988130963" lat="41.8818092" lon="-87.6378932"/>
  <node id="7015621020" lat="41.8833158" lon="-87.6377427"/>
  <node id="7015621500" lat="41.8843547" lon="-87.6382866"/>
  <node id="7015621531" lat="41.8857912" lon="-87.6373424"/>
  <node id="7015621543" lat="41.8858115" lon="-87.6373424"/>
  <node id="7182160959" lat="41.8551077" lon="-87.6119179"/>
  <node id="7182160960" lat="41.8546426" lon="-87.6140284"/>
  <node id="7182160961" lat="41.8546648" lon="-87.6139373"/>
  <node id="7182172046" lat="41.8524989" lon="-87.6131796"/>
  <node id="7182172053" lat="41.8527420" lon="-87.6109869">
    <tag k="entrance" v="yes"/>
  </node>
  <node id="7193673164" lat="41.8546773" lon="-87.6138825"/>
  <node id="8285356481" lat="41.8725666" lon="-87.6352372"/>
  <node id="8821671469" lat="41.8823333" lon="-87.6386203">
    <tag k="entrance" v="yes"/>
  </node>
  <node id="8821671471" lat="41.8821185" lon="-87.6386299"/>
  <node id="9239383394" lat="41.8766603" lon="-87.6370487"/>
  <node id="9239407663" lat="41.8754887" lon="-87.6362408"/>
  <node id="9270459852" lat="41.8708825" lon="-87.6349635"/>
  <node id="9270459853" lat="41.8708680" lon="-87.6349653"/>
  <node id="9270459854" lat="41.8708539" lon="-87.6349604"/>
  <node id="9270459855" lat="41.8709123" lon="-87.6348920"/>
  <node id="9270459858" lat="41.8708300" lon="-87.6348954"/>
  <node id="9270459859" lat="41.8708351" lon="-87.6348785"/>
  <node id="9270459860" lat="41.8712798" lon="-87.6349508"/>
  <node id="9270459868" lat="41.8709046" lon="-87.6348723"/>
  <node id="9270459869" lat="41.8708945" lon="-87.6348602"/>
  <node id="9270459870" lat="41.8709092" lon="-87.6348817"/>
  <node id="9270459871" lat="41.8708789" lon="-87.6348520"/>
  <node id="9270459872" lat="41.8708870" lon="-87.6348550"/>
  <node id="9270459873" lat="41.8708662" lon="-87.6348515"/>
  <node id="9270459874" lat="41.8708539" lon="-87.6348561"/>
  <node id="9270459875" lat="41.8708432" lon="-87.6348654"/>
  <node id="9270459879" lat="41.8712899" lon="-87.6349313"/>
  <node id="9270459880" lat="41.8713006" lon="-87.6349220"/>
  <node id="9270459881" lat="41.8713129" lon="-87.6349174"/>
  <node id="9270459882" lat="41.8713256" lon="-87.6349178"/>
  <node id="9270459883" lat="41.8713337" lon="-87.6349209"/>
  <node id="9270459884" lat="41.8713412" lon="-87.6349260"/>
  <node id="9270459885" lat="41.8713513" lon="-87.6349382"/>
  <node id="9270459886" lat="41.8713558" lon="-87.6349475"/>
  <node id="9270459887" lat="41.8713590" lon="-87.6349579"/>
  <node id="9270459888" lat="41.8713607" lon="-87.6349756"/>
  <node id="9270459889" lat="41.8713583" lon="-87.6349931"/>
  <node id="9270459890" lat="41.8713520" lon="-87.6350088"/>
  <node id="9270459891" lat="41.8713292" lon="-87.6350293"/>
  <node id="9270459892" lat="41.8713147" lon="-87.6350311"/>
  <node id="9270459893" lat="41.8713006" lon="-87.6350262"/>
  <node id="9270459894" lat="41.8712818" lon="-87.6349444"/>
  <node id="9270459895" lat="41.8716925" lon="-87.6345779"/>
  <node id="9270459896" lat="41.8717010" lon="-87.6345792"/>
  <node id="9270459905" lat="41.8719983" lon="-87.6346944"/>
  <node id="9270459908" lat="41.8719974" lon="-87.6347049"/>
  <node id="9270459909" lat="41.8719883" lon="-87.6348100"/>
  <node id="9270459912" lat="41.8719872" lon="-87.6348229"/>
  <node id="9270459913" lat="41.8719777" lon="-87.6349320"/>
  <node id="9270459916" lat="41.8719766" lon="-87.6349449"/>
  <node id="9270504921" lat="41.8719652" lon="-87.6350769"/>
  <node id="9270504935" lat="41.8713424" lon="-87.6350211"/>
  <node id="9270504936" lat="41.8708292" lon="-87.6349149"/>
  <node id="9270504937" lat="41.8708333" lon="-87.6349336"/>
  <node id="9270504939" lat="41.8708419" lon="-87.6349494"/>
  <node id="9270504947" lat="41.8712881" lon="-87.6350153"/>
  <node id="9270504948" lat="41.8708921" lon="-87.6349562"/>
  <node id="9386851172" lat="41.8740234" lon="-87.6362842"/>
  <node id="9386851173" lat="41.8728550" lon="-87.6360330"/>
  <node id="9386851174" lat="41.8719089" lon="-87.6357940"/>
  <node id="9386851189" lat="41.8719794" lon="-87.6351180"/>
  <node id="9451526232" lat="41.8544767" lon="-87.6136162"/>
  <node id="9451526233" lat="41.8547957" lon="-87.6121368"/>
  <node id="9451526234" lat="41.8517236" lon="-87.6109205"/>
  <node id="9451526235" lat="41.8513977" lon="-87.6123987"/>
  <node id="9451526236" lat="41.8523812" lon="-87.6127886"/>
  <node id="9451526237" lat="41.8523065" lon="-87.6127591"/>
  <node id="9451526238" lat="41.8521759" lon="-87.6130517"/>
  <node id="9451526239" lat="41.8523719" lon="-87.6131292"/>
  <node id="9451526246" lat="41.8535182" lon="-87.6132376">
    <tag k="entrance" v="yes"/>
    <tag k="ref" v="1"/>
  </node>
  <node id="9451526248" lat="41.8542091" lon="-87.6135105">
    <tag k="entrance" v="yes"/>
    <tag k="ref" v="2"/>
  </node>
  <node id="9451526250" lat="41.8545862" lon="-87.6131032">
    <tag k="entrance" v="yes"/>
    <tag k="ref" v="3-10"/>
  </node>
  <node id="9451526276" lat="41.8514667" lon="-87.6120832">
    <tag k="entrance" v="yes"/>
  </node>
  <node id="9451526277" lat="41.8516551" lon="-87.6112376">
    <tag k="entrance" v="yes"/>
  </node>
  <node id="9451526278" lat="41.8515142" lon="-87.6106968"/>
  <node id="9453830713" lat="41.8671201" lon="-87.6350554"/>
  <node id="9453830714" lat="41.8671191" lon="-87.6350617"/>
  <node id="9453830715" lat="41.8670902" lon="-87.6350526"/>
  <node id="9453830716" lat="41.8670916" lon="-87.6350460"/>
  <node id="9453900217" lat="41.8671167" lon="-87.6350672"/>
  <node id="9453900218" lat="41.8671132" lon="-87.6350715"/>
  <node id="9453900219" lat="41.8671088" lon="-87.6350740"/>
  <node id="9453900220" lat="41.8671041" lon="-87.6350746"/>
  <node id="9453900221" lat="41.8670994" lon="-87.6350731"/>
  <node id="9453900222" lat="41.8670954" lon="-87.6350698"/>
  <node id="9453900223" lat="41.8670923" lon="-87.6350649"/>
  <node id="9453900224" lat="41.8670905" lon="-87.6350590"/>
  <node id="9453900225" lat="41.8670945" lon="-87.6350403"/>
  <node id="9453900226" lat="41.8670987" lon="-87.6350363"/>
  <node id="9453900227" lat="41.8671036" lon="-87.6350345"/>
  <node id="9453900228" lat="41.8671087" lon="-87.6350350"/>
  <node id="9453900229" lat="41.8671134" lon="-87.6350377"/>
  <node id="9453900230" lat="41.8671171" lon="-87.6350425"/>
  <node id="9453900231" lat="41.8671194" lon="-87.6350486"/>
  <node id="9453900232" lat="41.8671077" lon="-87.6343980"/>
  <node id="9453900233" lat="41.8671119" lon="-87.6343940"/>
  <node id="9453900234" lat="41.8671168" lon="-87.6343922"/>
  <node id="9453900235" lat="41.8671219" lon="-87.6343927"/>
  <node id="9453900236" lat="41.8671266" lon="-87.6343954"/>
  <node id="9453900237" lat="41.8671303" lon="-87.6344002"/>
  <node id="9453900238" lat="41.8671326" lon="-87.6344063"/>
  <node id="9453900239" lat="41.8671333" lon="-87.6344131"/>
  <node id="9453900240" lat="41.8671323" lon="-87.6344194"/>
  <node id="9453900241" lat="41.8671299" lon="-87.6344249"/>
  <node id="9453900242" lat="41.8671264" lon="-87.6344292"/>
  <node id="9453900243" lat="41.8671220" lon="-87.6344317"/>
  <node id="9453900244" lat="41.8671173" lon="-87.6344323"/>
  <node id="9453900245" lat="41.8671126" lon="-87.6344308"/>
  <node id="9453900246" lat="41.8671086" lon="-87.6344275"/>
  <node id="9453900247" lat="41.8671055" lon="-87.6344226"/>
  <node id="9453900248" lat="41.8671037" lon="-87.6344167"/>
  <node id="9453900249" lat="41.8671034" lon="-87.6344103"/>
  <node id="9453900250" lat="41.8671048" lon="-87.6344037"/>
  <node id="9453900251" lat="41.8675078" lon="-87.6344040"/>
  <node id="9453900252" lat="41.8675119" lon="-87.6344000"/>
  <node id="9453900253" lat="41.8675169" lon="-87.6343982"/>
  <node id="9453900254" lat="41.8675220" lon="-87.6343987"/>
  <node id="9453900255" lat="41.8675267" lon="-87.6344014"/>
  <node id="9453900256" lat="41.8675304" lon="-87.6344062"/>
  <node id="9453900257" lat="41.8675327" lon="-87.6344123"/>
  <node id="9453900258" lat="41.8675334" lon="-87.6344191"/>
  <node id="9453900259" lat="41.8675324" lon="-87.6344254"/>
  <node id="9453900260" lat="41.8675300" lon="-87.6344309"/>
  <node id="9453900261" lat="41.8675264" lon="-87.6344352"/>
  <node id="9453900262" lat="41.8675221" lon="-87.6344377"/>
  <node id="9453900263" lat="41.8675173" lon="-87.6344383"/>
  <node id="9453900264" lat="41.8675127" lon="-87.6344368"/>
  <node id="9453900265" lat="41.8675086" lon="-87.6344335"/>
  <node id="9453900266" lat="41.8675056" lon="-87.6344286"/>
  <node id="9453900267" lat="41.8675038" lon="-87.6344227"/>
  <node id="9453900268" lat="41.8675035" lon="-87.6344163"/>
  <node id="9453900269" lat="41.8675048" lon="-87.6344096"/>
  <node id="9453900270" lat="41.8675068" lon="-87.6350495"/>
  <node id="9453900271" lat="41.8675109" lon="-87.6350455"/>
  <node id="9453900272" lat="41.8675159" lon="-87.6350437"/>
  <node id="9453900273" lat="41.8675210" lon="-87.6350441"/>
  <node id="9453900274" lat="41.8675257" lon="-87.6350469"/>
  <node id="9453900275" lat="41.8675294" lon="-87.6350516"/>
  <node id="9453900276" lat="41.8675317" lon="-87.6350578"/>
  <node id="9453900277" lat="41.8675324" lon="-87.6350646"/>
  <node id="9453900278" lat="41.8675314" lon="-87.6350709"/>
  <node id="9453900279" lat="41.8675290" lon="-87.6350764"/>
  <node id="9453900280" lat="41.8675254" lon="-87.6350806"/>
  <node id="9453900281" lat="41.8675211" lon="-87.6350832"/>
  <node id="9453900282" lat="41.8675163" lon="-87.6350837"/>
  <node id="9453900283" lat="41.8675117" lon="-87.6350823"/>
  <node id="9453900284" lat="41.8675076" lon="-87.6350789"/>
  <node id="9453900285" lat="41.8675046" lon="-87.6350741"/>
  <node id="9453900286" lat="41.8675028" lon="-87.6350681"/>
  <node id="9453900287" lat="41.8675025" lon="-87.6350618"/>
  <node id="9453900288" lat="41.8675038" lon="-87.6350551"/>
  <node id="9453913847" lat="41.8766632" lon="-87.6376961"/>
  <node id="9453913848" lat="41.8766589" lon="-87.6376939"/>
  <node id="9453913849" lat="41.8766543" lon="-87.6376937"/>
  <node id="9453913850" lat="41.8766500" lon="-87.6376956"/>
  <node id="9453913851" lat="41.8766464" lon="-87.6376993"/>
  <node id="9453913852" lat="41.8766439" lon="-87.6377045"/>
  <node id="9453913853" lat="41.8766480" lon="-87.6377255"/>
  <node id="9453913854" lat="41.8766517" lon="-87.6377282"/>
  <node id="9453913855" lat="41.8766558" lon="-87.6377293"/>
  <node id="9453913856" lat="41.8766600" lon="-87.6377286"/>
  <node id="9453913857" lat="41.8766638" lon="-87.6377261"/>
  <node id="9453913858" lat="41.8766669" lon="-87.6377222"/>
  <node id="9453913859" lat="41.8766689" lon="-87.6377172"/>
  <node id="9453913860" lat="41.8769645" lon="-87.6377913"/>
  <node id="9453913861" lat="41.8769604" lon="-87.6377933"/>
  <node id="9453913862" lat="41.8769560" lon="-87.6377933"/>
  <node id="9453913863" lat="41.8769519" lon="-87.6377913"/>
  <node id="9453913864" lat="41.8769486" lon="-87.6377876"/>
  <node id="9453913865" lat="41.8769463" lon="-87.6377827"/>
  <node id="9453913866" lat="41.8769505" lon="-87.6377626"/>
  <node id="9453913867" lat="41.8769542" lon="-87.6377601"/>
  <node id="9453913868" lat="41.8769582" lon="-87.6377592"/>
  <node id="9453913869" lat="41.8769622" lon="-87.6377601"/>
  <node id="9453913870" lat="41.8769658" lon="-87.6377626"/>
  <node id="9453913871" lat="41.8769687" lon="-87.6377666"/>
  <node id="9453913872" lat="41.8769704" lon="-87.6377715"/>
  <node id="9453913873" lat="41.8748869" lon="-87.6365709"/>
  <node id="9453913876" lat="41.8746139" lon="-87.6363608"/>
  <node id="9453913877" lat="41.8746104" lon="-87.6363619"/>
  <node id="9453913878" lat="41.8746074" lon="-87.6363643"/>
  <node id="9453913879" lat="41.8746051" lon="-87.6363680"/>
  <node id="9453913880" lat="41.8746037" lon="-87.6363724"/>
  <node id="9453913881" lat="41.8746035" lon="-87.6363772"/>
  <node id="9453913882" lat="41.8746045" lon="-87.6363818"/>
  <node id="9453913883" lat="41.8746167" lon="-87.6363902"/>
  <node id="9453913884" lat="41.8746201" lon="-87.6363884"/>
  <node id="9453913885" lat="41.8746230" lon="-87.6363852"/>
  <node id="9453913886" lat="41.8746248" lon="-87.6363809"/>
  <node id="9453913887" lat="41.8746255" lon="-87.6363760"/>
  <node id="9453913888" lat="41.8746250" lon="-87.6363710"/>
  <node id="9453913889" lat="41.8742995" lon="-87.6356833"/>
  <node id="9453913890" lat="41.8743029" lon="-87.6356815"/>
  <node id="9453913891" lat="41.8743058" lon="-87.6356783"/>
  <node id="9453913892" lat="41.8743076" lon="-87.6356740"/>
  <node id="9453913893" lat="41.8743083" lon="-87.6356691"/>
  <node id="9453913894" lat="41.8743078" lon="-87.6356641"/>
  <node id="9453913895" lat="41.8743061" lon="-87.6356597"/>
  <node id="9453913896" lat="41.8743035" lon="-87.6356564"/>
  <node id="9453913897" lat="41.8743002" lon="-87.6356544"/>
  <node id="9453913898" lat="41.8742967" lon="-87.6356539"/>
  <node id="9453913899" lat="41.8742932" lon="-87.6356550"/>
  <node id="9453913900" lat="41.8742902" lon="-87.6356574"/>
  <node id="9453913901" lat="41.8742878" lon="-87.6356611"/>
  <node id="9453913902" lat="41.8742865" lon="-87.6356655"/>
  <node id="9453913903" lat="41.8742863" lon="-87.6356703"/>
  <node id="9453913904" lat="41.8742873" lon="-87.6356749"/>
  <node id="9453913905" lat="41.8742892" lon="-87.6356789"/>
  <node id="9453913906" lat="41.8742922" lon="-87.6356819"/>
  <node id="9453913907" lat="41.8742957" lon="-87.6356834"/>
  <node id="9557183128" lat="41.8734737" lon="-87.6354474"/>
  <node id="9557183130" lat="41.8710727" lon="-87.6344835"/>
  <node id="9573951660" lat="41.8792578" lon="-87.6377960"/>
  <node id="9678427515" lat="41.8807015" lon="-87.6379570"/>
  <node id="9678427516" lat="41.8811007" lon="-87.6379278"/>
  <node id="10922694021" lat="41.8833156" lon="-87.6377615"/>
  <node id="10925193419" lat="41.8820089" lon="-87.6378950"/>
  <node id="10925193423" lat="41.8807564" lon="-87.6379362"/>
  <node id="10925193431" lat="41.8807562" lon="-87.6379577"/>
  <node id="10925366938" lat="41.8814150" lon="-87.6379147"/>
  <node id="10927074432" lat="41.8791628" lon="-87.6377942"/>
  <node id="10927074433" lat="41.8791565" lon="-87.6378119"/>
  <node id="10927074434" lat="41.8791453" lon="-87.6378128"/>
  <node id="10927074435" lat="41.8791384" lon="-87.6378009"/>
  <node id="10927074436" lat="41.8791433" lon="-87.6377818"/>
  <node id="10927074437" lat="41.8791549" lon="-87.6377814"/>
  <node id="10929174853" lat="41.8845749" lon="-87.6375999"/>
  <node id="10929174857" lat="41.8843420" lon="-87.6375610"/>
  <node id="10929174860" lat="41.8842751" lon="-87.6376734"/>
  <node id="10929174862" lat="41.8842759" lon="-87.6375983"/>
  <node id="10929174863" lat="41.8843408" lon="-87.6375984"/>
  <node id="10929174865" lat="41.8842553" lon="-87.6376797"/>
  <node id="10929174866" lat="41.8842542" lon="-87.6376858"/>
  <node id="10929174867" lat="41.8842262" lon="-87.6376757"/>
  <node id="10929174868" lat="41.8842277" lon="-87.6376694"/>
  <node id="10929174869" lat="41.8842518" lon="-87.6376912"/>
  <node id="10929174870" lat="41.8842482" lon="-87.6376952"/>
  <node id="10929174871" lat="41.8842439" lon="-87.6376976"/>
  <node id="10929174872" lat="41.8842392" lon="-87.6376979"/>
  <node id="10929174873" lat="41.8842347" lon="-87.6376963"/>
  <node id="10929174874" lat="41.8842308" lon="-87.6376928"/>
  <node id="10929174875" lat="41.8842279" lon="-87.6376879"/>
  <node id="10929174876" lat="41.8842263" lon="-87.6376820"/>
  <node id="10929174877" lat="41.8842307" lon="-87.6376640"/>
  <node id="10929174878" lat="41.8842349" lon="-87.6376604"/>
  <node id="10929174879" lat="41.8842397" lon="-87.6376588"/>
  <node id="10929174880" lat="41.8842446" lon="-87.6376595"/>
  <node id="10929174881" lat="41.8842491" lon="-87.6376623"/>
  <node id="10929174882" lat="41.8842526" lon="-87.6376670"/>
  <node id="10929174883" lat="41.8842548" lon="-87.6376731"/>
  <node id="10929174884" lat="41.8845950" lon="-87.6376146"/>
  <node id="10929174885" lat="41.8845992" lon="-87.6376109"/>
  <node id="10929174886" lat="41.8846040" lon="-87.6376093"/>
  <node id="10929174887" lat="41.8846089" lon="-87.6376100"/>
  <node id="10929174888" lat="41.8846134" lon="-87.6376128"/>
  <node id="10929174889" lat="41.8846169" lon="-87.6376176"/>
  <node id="10929174890" lat="41.8846191" lon="-87.6376236"/>
  <node id="10929174891" lat="41.8846196" lon="-87.6376302"/>
  <node id="10929174892" lat="41.8846185" lon="-87.6376363"/>
  <node id="10929174893" lat="41.8846161" lon="-87.6376417"/>
  <node id="10929174894" lat="41.8846125" lon="-87.6376458"/>
  <node id="10929174895" lat="41.8846082" lon="-87.6376481"/>
  <node id="10929174896" lat="41.8846035" lon="-87.6376485"/>
  <node id="10929174897" lat="41.8845990" lon="-87.6376468"/>
  <node id="10929174898" lat="41.8845951" lon="-87.6376434"/>
  <node id="10929174899" lat="41.8845922" lon="-87.6376384"/>
  <node id="10929174900" lat="41.8845906" lon="-87.6376325"/>
  <node id="10929174901" lat="41.8845905" lon="-87.6376262"/>
  <node id="10929174902" lat="41.8845920" lon="-87.6376199"/>
  <node id="10929180910" lat="41.8846314" lon="-87.6382350"/>
  <node id="10929180911" lat="41.8846346" lon="-87.6382368"/>
  <node id="10929180915" lat="41.8846300" lon="-87.6382641"/>
  <node id="10929180916" lat="41.8846262" lon="-87.6382637"/>
  <node id="10929180917" lat="41.8846227" lon="-87.6382616"/>
  <node id="10929180922" lat="41.8843548" lon="-87.6382805"/>
  <node id="10929180923" lat="41.8845745" lon="-87.6376788"/>
  <node id="10929180930" lat="41.8842720" lon="-87.6375709"/>
  <node id="10929180952" lat="41.8834431" lon="-87.6377186"/>
  <node id="10929180960" lat="41.8840293" lon="-87.6376145"/>
  <node id="10929180961" lat="41.8839468" lon="-87.6376293"/>
  <node id="10929180962" lat="41.8838579" lon="-87.6376453"/>
  <node id="10929180963" lat="41.8837755" lon="-87.6376601"/>
  <node id="10929180964" lat="41.8836926" lon="-87.6376750"/>
  <node id="10929180965" lat="41.8836114" lon="-87.6376898"/>
  <node id="10929180966" lat="41.8835289" lon="-87.6377044"/>
  <node id="10929180979" lat="41.8825106" lon="-87.6378703"/>
  <node id="10929180980" lat="41.8807564" lon="-87.6379304"/>
  <node id="10929180981" lat="41.8820952" lon="-87.6385661"/>
  <node id="10929180982" lat="41.8820946" lon="-87.6385712"/>
  <node id="10929180983" lat="41.8820719" lon="-87.6385636"/>
  <node id="10929180984" lat="41.8820731" lon="-87.6385587"/>
  <node id="10929180985" lat="41.8820928" lon="-87.6385758"/>
  <node id="10929180986" lat="41.8820899" lon="-87.6385793"/>
  <node id="10929180987" lat="41.8820864" lon="-87.6385814"/>
  <node id="10929180988" lat="41.8820825" lon="-87.6385819"/>
  <node id="10929180989" lat="41.8820788" lon="-87.6385806"/>
  <node id="10929180990" lat="41.8820755" lon="-87.6385778"/>
  <node id="10929180991" lat="41.8820732" lon="-87.6385737"/>
  <node id="10929180992" lat="41.8820719" lon="-87.6385688"/>
  <node id="10929180993" lat="41.8820754" lon="-87.6385546"/>
  <node id="10929180994" lat="41.8820787" lon="-87.6385517"/>
  <node id="10929180995" lat="41.8820824" lon="-87.6385504"/>
  <node id="10929180996" lat="41.8820863" lon="-87.6385508"/>
  <node id="10929180997" lat="41.8820898" lon="-87.6385529"/>
  <node id="10929180998" lat="41.8820927" lon="-87.6385564"/>
  <node id="10929180999" lat="41.8820945" lon="-87.6385609"/>
  <node id="10929181014" lat="41.8817181" lon="-87.6385603"/>
  <node id="10929181015" lat="41.8817047" lon="-87.6385687"/>
  <node id="10929181016" lat="41.8817021" lon="-87.6385574"/>
  <node id="10929181017" lat="41.8817060" lon="-87.6385484"/>
  <node id="10929181018" lat="41.8817146" lon="-87.6385483"/>
  <node id="10929181019" lat="41.8825677" lon="-87.6385505"/>
  <node id="10929181020" lat="41.8825710" lon="-87.6385477"/>
  <node id="10929181021" lat="41.8825747" lon="-87.6385464"/>
  <node id="10929181022" lat="41.8825786" lon="-87.6385468"/>
  <node id="10929181023" lat="41.8825821" lon="-87.6385488"/>
  <node id="10929181024" lat="41.8825850" lon="-87.6385523"/>
  <node id="10929181025" lat="41.8825868" lon="-87.6385569"/>
  <node id="10929181026" lat="41.8825875" lon="-87.6385620"/>
  <node id="10929181027" lat="41.8825869" lon="-87.6385671"/>
  <node id="10929181028" lat="41.8825851" lon="-87.6385717"/>
  <node id="10929181029" lat="41.8825822" lon="-87.6385752"/>
  <node id="10929181030" lat="41.8825787" lon="-87.6385774"/>
  <node id="10929181031" lat="41.8825748" lon="-87.6385778"/>
  <node id="10929181032" lat="41.8825711" lon="-87.6385766"/>
  <node id="10929181033" lat="41.8825678" lon="-87.6385738"/>
  <node id="10929181034" lat="41.8825655" lon="-87.6385697"/>
  <node id="10929181035" lat="41.8825642" lon="-87.6385648"/>
  <node id="10929181036" lat="41.8825642" lon="-87.6385596"/>
  <node id="10929181037" lat="41.8825654" lon="-87.6385547"/>
  <node id="10929181038" lat="41.8827908" lon="-87.6385290"/>
  <node id="10929181039" lat="41.8827940" lon="-87.6385261"/>
  <node id="10929181040" lat="41.8827978" lon="-87.6385248"/>
  <node id="10929181041" lat="41.8828017" lon="-87.6385252"/>
  <node id="10929181042" lat="41.8828052" lon="-87.6385273"/>
  <node id="10929181043" lat="41.8828081" lon="-87.6385308"/>
  <node id="10929181044" lat="41.8828099" lon="-87.6385353"/>
  <node id="10929181045" lat="41.8828106" lon="-87.6385404"/>
  <node id="10929181046" lat="41.8828100" lon="-87.6385456"/>
  <node id="10929181047" lat="41.8828081" lon="-87.6385501"/>
  <node id="10929181048" lat="41.8828053" lon="-87.6385537"/>
  <node id="10929181049" lat="41.8828018" lon="-87.6385558"/>
  <node id="10929181050" lat="41.8827979" lon="-87.6385563"/>
  <node id="10929181051" lat="41.8827942" lon="-87.6385550"/>
  <node id="10929181052" lat="41.8827909" lon="-87.6385522"/>
  <node id="10929181053" lat="41.8827885" lon="-87.6385481"/>
  <node id="10929181054" lat="41.8827873" lon="-87.6385432"/>
  <node id="10929181055" lat="41.8827872" lon="-87.6385380"/>
  <node id="10929181056" lat="41.8827885" lon="-87.6385331"/>
  <node id="10929181057" lat="41.8830321" lon="-87.6383763"/>
  <node id="10929181058" lat="41.8830354" lon="-87.6383734"/>
  <node id="10929181059" lat="41.8830391" lon="-87.6383721"/>
  <node id="10929181060" lat="41.8830430" lon="-87.6383725"/>
  <node id="10929181061" lat="41.8830465" lon="-87.6383746"/>
  <node id="10929181062" lat="41.8830494" lon="-87.6383781"/>
  <node id="10929181063" lat="41.8830512" lon="-87.6383827"/>
  <node id="10929181064" lat="41.8830519" lon="-87.6383878"/>
  <node id="10929181065" lat="41.8830513" lon="-87.6383929"/>
  <node id="10929181066" lat="41.8830495" lon="-87.6383975"/>
  <node id="10929181067" lat="41.8830466" lon="-87.6384010"/>
  <node id="10929181068" lat="41.8830431" lon="-87.6384031"/>
  <node id="10929181069" lat="41.8830393" lon="-87.6384036"/>
  <node id="10929181070" lat="41.8830355" lon="-87.6384023"/>
  <node id="10929181071" lat="41.8830322" lon="-87.6383995"/>
  <node id="10929181072" lat="41.8830299" lon="-87.6383954"/>
  <node id="10929181073" lat="41.8830286" lon="-87.6383905"/>
  <node id="10929181074" lat="41.8830286" lon="-87.6383854"/>
  <node id="10929181075" lat="41.8830298" lon="-87.6383804"/>
  <node id="10929181076" lat="41.8833277" lon="-87.6383821"/>
  <node id="10929181077" lat="41.8833309" lon="-87.6383793"/>
  <node id="10929181078" lat="41.8833347" lon="-87.6383780"/>
  <node id="10929181079" lat="41.8833385" lon="-87.6383784"/>
  <node id="10929181080" lat="41.8833421" lon="-87.6383804"/>
  <node id="10929181081" lat="41.8833449" lon="-87.6383839"/>
  <node id="10929181082" lat="41.8833468" lon="-87.6383885"/>
  <node id="10929181083" lat="41.8833474" lon="-87.6383936"/>
  <node id="10929181084" lat="41.8833468" lon="-87.6383987"/>
  <node id="10929181085" lat="41.8833450" lon="-87.6384033"/>
  <node id="10929181086" lat="41.8833422" lon="-87.6384069"/>
  <node id="10929181087" lat="41.8833386" lon="-87.6384090"/>
  <node id="10929181088" lat="41.8833348" lon="-87.6384094"/>
  <node id="10929181089" lat="41.8833310" lon="-87.6384082"/>
  <node id="10929181090" lat="41.8833278" lon="-87.6384054"/>
  <node id="10929181091" lat="41.8833254" lon="-87.6384013"/>
  <node id="10929181092" lat="41.8833241" lon="-87.6383964"/>
  <node id="10929181093" lat="41.8833241" lon="-87.6383912"/>
  <node id="10929181094" lat="41.8833253" lon="-87.6383863"/>
  <node id="10929181095" lat="41.8833190" lon="-87.6378112"/>
  <node id="10929181096" lat="41.8833222" lon="-87.6378084"/>
  <node id="10929181097" lat="41.8833260" lon="-87.6378071"/>
  <node id="10929181098" lat="41.8833298" lon="-87.6378075"/>
  <node id="10929181099" lat="41.8833334" lon="-87.6378095"/>
  <node id="10929181100" lat="41.8833362" lon="-87.6378130"/>
  <node id="10929181101" lat="41.8833381" lon="-87.6378176"/>
  <node id="10929181102" lat="41.8833387" lon="-87.6378227"/>
  <node id="10929181103" lat="41.8833381" lon="-87.6378278"/>
  <node id="10929181104" lat="41.8833363" lon="-87.6378324"/>
  <node id="10929181105" lat="41.8833335" lon="-87.6378359"/>
  <node id="10929181106" lat="41.8833299" lon="-87.6378381"/>
  <node id="10929181107" lat="41.8833261" lon="-87.6378385"/>
  <node id="10929181108" lat="41.8833223" lon="-87.6378373"/>
  <node id="10929181109" lat="41.8833191" lon="-87.6378345"/>
  <node id="10929181110" lat="41.8833167" lon="-87.6378304"/>
  <node id="10929181111" lat="41.8833154" lon="-87.6378255"/>
  <node id="10929181112" lat="41.8833154" lon="-87.6378203"/>
  <node id="10929181113" lat="41.8833166" lon="-87.6378154"/>
  <node id="10929181114" lat="41.8830843" lon="-87.6378042"/>
  <node id="10929181115" lat="41.8830875" lon="-87.6378014"/>
  <node id="10929181116" lat="41.8830913" lon="-87.6378001"/>
  <node id="10929181117" lat="41.8830951" lon="-87.6378005"/>
  <node id="10929181118" lat="41.8830987" lon="-87.6378025"/>
  <node id="10929181119" lat="41.8831015" lon="-87.6378060"/>
  <node id="10929181120" lat="41.8831034" lon="-87.6378106"/>
  <node id="10929181121" lat="41.8831041" lon="-87.6378157"/>
  <node id="10929181122" lat="41.8831034" lon="-87.6378208"/>
  <node id="10929181123" lat="41.8831016" lon="-87.6378254"/>
  <node id="10929181124" lat="41.8830988" lon="-87.6378289"/>
  <node id="10929181125" lat="41.8830953" lon="-87.6378311"/>
  <node id="10929181126" lat="41.8830914" lon="-87.6378315"/>
  <node id="10929181127" lat="41.8830877" lon="-87.6378303"/>
  <node id="10929181128" lat="41.8830844" lon="-87.6378275"/>
  <node id="10929181129" lat="41.8830820" lon="-87.6378234"/>
  <node id="10929181130" lat="41.8830807" lon="-87.6378185"/>
  <node id="10929181131" lat="41.8830807" lon="-87.6378133"/>
  <node id="10929181132" lat="41.8830819" lon="-87.6378084"/>
  <node id="10929181133" lat="41.8855615" lon="-87.6380961"/>
  <node id="10929181134" lat="41.8855647" lon="-87.6380932"/>
  <node id="10929181135" lat="41.8855685" lon="-87.6380919"/>
  <node id="10929181136" lat="41.8855723" lon="-87.6380923"/>
  <node id="10929181137" lat="41.8855759" lon="-87.6380944"/>
  <node id="10929181138" lat="41.8855787" lon="-87.6380979"/>
  <node id="10929181139" lat="41.8855806" lon="-87.6381025"/>
  <node id="10929181140" lat="41.8855813" lon="-87.6381076"/>
  <node id="10929181141" lat="41.8855806" lon="-87.6381127"/>
  <node id="10929181142" lat="41.8855788" lon="-87.6381173"/>
  <node id="10929181143" lat="41.8855760" lon="-87.6381208"/>
  <node id="10929181144" lat="41.8855725" lon="-87.6381229"/>
  <node id="10929181145" lat="41.8855686" lon="-87.6381234"/>
  <node id="10929181146" lat="41.8855649" lon="-87.6381221"/>
  <node id="10929181147" lat="41.8855616" lon="-87.6381193"/>
  <node id="10929181148" lat="41.8855592" lon="-87.6381152"/>
  <node id="10929181149" lat="41.8855579" lon="-87.6381103"/>
  <node id="10929181150" lat="41.8855579" lon="-87.6381052"/>
  <node id="10929181151" lat="41.8855592" lon="-87.6381002"/>
  <node id="10974049471" lat="41.8792045" lon="-87.6384087"/>
  <node id="10974049472" lat="41.8791982" lon="-87.6384264"/>
  <node id="10974049473" lat="41.8791870" lon="-87.6384273"/>
  <node id="10974049474" lat="41.8791801" lon="-87.6384154"/>
  <node id="10974049475" lat="41.8791850" lon="-87.6383963"/>
  <node id="10974049476" lat="41.8791966" lon="-87.6383959"/>
  <node id="10974049477" lat="41.8795160" lon="-87.6384309"/>
  <node id="10974049478" lat="41.8795216" lon="-87.6384456"/>
  <node id="10974049479" lat="41.8795136" lon="-87.6384569"/>
  <node id="10974049480" lat="41.8794998" lon="-87.6384397"/>
  <node id="10974049481" lat="41.8795067" lon="-87.6384286"/>
  <node id="11037616816" lat="41.8779895" lon="-87.6373986"/>
  <node id="11235826908" lat="41.8523438" lon="-87.6127739">
    <tag k="door" v="yes"/>
  </node>
  <node id="11768393792" lat="41.8720968" lon="-87.6358490"/>
  <node id="11768393793" lat="41.8721943" lon="-87.6358241"/>
  <node id="11768393794" lat="41.8720987" lon="-87.6358142"/>
  <node id="11768393801" lat="41.8579436" lon="-87.6354090"/>
  <node id="11768393802" lat="41.8579318" lon="-87.6353983"/>
  <node id="11768393803" lat="41.8579201" lon="-87.6354049"/>
  <node id="11768393804" lat="41.8579190" lon="-87.6354227"/>
  <node id="11768393805" lat="41.8579311" lon="-87.6354329"/>
  <node id="11768393806" lat="41.8579432" lon="-87.6354263"/>
  <node id="11768393807" lat="41.8575731" lon="-87.6355471"/>
  <node id="11768393808" lat="41.8575613" lon="-87.6355364"/>
  <node id="11768393809" lat="41.8575496" lon="-87.6355430"/>
  <node id="11768393810" lat="41.8575484" lon="-87.6355608"/>
  <node id="11768393811" lat="41.8575606" lon="-87.6355710"/>
  <node id="11768393812" lat="41.8575727" lon="-87.6355644"/>
  <node id="11838349267" lat="41.8768962" lon="-87.6378998"/>
  <node id="11838349268" lat="41.8768957" lon="-87.6379157"/>
  <node id="11838361570" lat="41.8766935" lon="-87.6377681"/>
  <node id="11838361577" lat="41.8769121" lon="-87.6377781"/>
  <node id="11838361578" lat="41.8769105" lon="-87.6379003"/>
  <node id="11838361580" lat="41.8769036" lon="-87.6379000"/>
  <node id="11838361582" lat="41.8768950" lon="-87.6379430"/>
  <node id="11838361585" lat="41.8769122" lon="-87.6377548"/>
  <node id="11838361586" lat="41.8766926" lon="-87.6377444"/>
  <node id="11838361593" lat="41.8773195" lon="-87.6372515"/>
  <node id="11851469331" lat="41.8856159" lon="-87.6381043"/>
  <node id="11851469332" lat="41.8856394" lon="-87.6381048"/>
  <node id="11851469335" lat="41.8858263" lon="-87.6381037"/>
  <node id="11851469336" lat="41.8858246" lon="-87.6373424"/>
  <node id="11870155587" lat="41.8846372" lon="-87.6382397"/>
  <node id="11870155588" lat="41.8846390" lon="-87.6382436"/>
  <node id="11870155589" lat="41.8846398" lon="-87.6382481"/>
  <node id="11870155590" lat="41.8846396" lon="-87.6382526"/>
  <node id="11870155591" lat="41.8846383" lon="-87.6382569"/>
  <node id="11870155592" lat="41.8846362" lon="-87.6382604"/>
  <node id="11870155593" lat="41.8846333" lon="-87.6382629"/>
  <node id="11870155594" lat="41.8846200" lon="-87.6382581"/>
  <node id="11870155595" lat="41.8846183" lon="-87.6382535"/>
  <node id="11870155596" lat="41.8846179" lon="-87.6382484"/>
  <node id="11870155597" lat="41.8846188" lon="-87.6382434"/>
  <node id="11870155598" lat="41.8846209" lon="-87.6382391"/>
  <node id="11870155599" lat="41.8846240" lon="-87.6382361"/>
  <node id="11870155600" lat="41.8846276" lon="-87.6382347"/>
  <node id="11870155601" lat="41.8846294" lon="-87.6382684"/>
  <node id="11870155603" lat="41.8849557" lon="-87.6382173"/>
  <node id="11872650977" lat="41.8833016" lon="-87.6385051"/>
  <node id="11872650978" lat="41.8832779" lon="-87.6384727"/>
  <node id="11872650979" lat="41.8832795" lon="-87.6384119"/>
  <node id="11872650982" lat="41.8831049" lon="-87.6384040"/>
  <node id="11872650983" lat="41.8832741" lon="-87.6384117"/>
  <node id="11872650986" lat="41.8831123" lon="-87.6384043"/>
  <node id="11872650987" lat="41.8831043" lon="-87.6384242"/>
  <node id="11874844283" lat="41.8745608" lon="-87.6363727"/>
  <node id="11874844289" lat="41.8743659" lon="-87.6356935"/>
  <node id="11885108135" lat="41.8821823" lon="-87.6386264"/>
  <node id="11885108159" lat="41.8820420" lon="-87.6385796"/>
  <node id="11885108163" lat="41.8817425" lon="-87.6385635"/>
  <node id="11885108164" lat="41.8820420" lon="-87.6386342"/>
  <node id="11885108168" lat="41.8822620" lon="-87.6386225"/>
  <node id="11885108174" lat="41.8828423" lon="-87.6385632"/>
  <node id="11885108175" lat="41.8825909" lon="-87.6386030"/>
  <node id="11885108176" lat="41.8824302" lon="-87.6386173"/>
  <node id="11885108182" lat="41.8828727" lon="-87.6385575"/>
  <node id="11885108186" lat="41.8830832" lon="-87.6385709"/>
  <node id="11885108187" lat="41.8830975" lon="-87.6385715"/>
  <node id="11885108191" lat="41.8831033" lon="-87.6384784"/>
  <node id="11885108198" lat="41.8831260" lon="-87.6377645"/>
  <node id="11885108199" lat="41.8829224" lon="-87.6377992"/>
  <node id="11885108200" lat="41.8833161" lon="-87.6377685"/>
  <node id="11886773737" lat="41.8806990" lon="-87.6385531"/>
  <node id="11886773742" lat="41.8808682" lon="-87.6386753"/>
  <node id="11886773743" lat="41.8813230" lon="-87.6386638"/>
  <node id="11886773744" lat="41.8813819" lon="-87.6386592"/>
  <node id="11886773745" lat="41.8813656" lon="-87.6386485"/>
  <node id="11886773746" lat="41.8813408" lon="-87.6386497"/>
  <node id="11886773747" lat="41.8815208" lon="-87.6386499"/>
  <node id="11886773748" lat="41.8816010" lon="-87.6386342"/>
  <node id="11886773749" lat="41.8815462" lon="-87.6386374"/>
  <node id="11886773750" lat="41.8816230" lon="-87.6386437"/>
  <node id="11886792378" lat="41.8812672" lon="-87.6386654"/>
  <node id="11886792380" lat="41.8812283" lon="-87.6386664"/>
  <node id="11886792385" lat="41.8808580" lon="-87.6386673"/>
  <node id="11886792386" lat="41.8811085" lon="-87.6386697"/>
  <node id="11886792387" lat="41.8811346" lon="-87.6386690"/>
  <node id="11886792388" lat="41.8811256" lon="-87.6386615"/>
  <node id="11886792403" lat="41.8817346" lon="-87.6385739"/>
  <node id="11886792404" lat="41.8820344" lon="-87.6385733"/>
  <node id="11886792405" lat="41.8819986" lon="-87.6385721"/>
  <node id="11886792406" lat="41.8818023" lon="-87.6385655"/>
  <node id="11887871030" lat="41.8795144" lon="-87.6384825"/>
  <node id="11887871031" lat="41.8795136" lon="-87.6384956"/>
  <node id="11887871032" lat="41.8795064" lon="-87.6385007"/>
  <node id="11887871033" lat="41.8795001" lon="-87.6384934"/>
  <node id="11887871034" lat="41.8795007" lon="-87.6384836"/>
  <node id="11887871035" lat="41.8795077" lon="-87.6384789"/>
  <node id="11887871036" lat="41.8795019" lon="-87.6384543"/>
  <node id="11887871037" lat="41.8817138" lon="-87.6385698"/>
  <node id="11887871039" lat="41.8803282" lon="-87.6386535"/>
  <node id="11887871040" lat="41.8803087" lon="-87.6386524"/>
  <node id="11887871041" lat="41.8803220" lon="-87.6386480"/>
  <node id="11887871042" lat="41.8803139" lon="-87.6386474"/>
  <node id="11887871043" lat="41.8808484" lon="-87.6386670"/>
  <node id="11887871044" lat="41.8811175" lon="-87.6386613"/>
  <node id="11887871045" lat="41.8801111" lon="-87.6386289"/>
  <node id="11887871046" lat="41.8800925" lon="-87.6386209"/>
  <node id="11887871047" lat="41.8801029" lon="-87.6386222"/>
  <node id="11887871048" lat="41.8792185" lon="-87.6384275"/>
  <node id="11887871049" lat="41.8792472" lon="-87.6384289"/>
  <node id="11887871051" lat="41.8792318" lon="-87.6384280"/>
  <node id="11887871055" lat="41.8792169" lon="-87.6385031"/>
  <node id="11887890902" lat="41.8805235" lon="-87.6385465"/>
  <node id="11888240235" lat="41.8779041" lon="-87.6381501"/>
  <node id="11888240245" lat="41.8770145" lon="-87.6379953"/>
  <node id="11889832965" lat="41.8779835" lon="-87.6380491"/>
  <node id="11889832966" lat="41.8779726" lon="-87.6380487"/>
  <node id="11889832967" lat="41.8779645" lon="-87.6381536"/>
  <node id="11889859170" lat="41.8782007" lon="-87.6381706"/>
  <node id="11889859179" lat="41.8781595" lon="-87.6380591"/>
  <node id="11889859180" lat="41.8791126" lon="-87.6384716"/>
  <node id="11889859181" lat="41.8791672" lon="-87.6384881"/>
  <node id="11889859558" lat="41.8790211" lon="-87.6384414"/>
  <node id="11889859559" lat="41.8790476" lon="-87.6384502"/>
  <node id="11889859560" lat="41.8790411" lon="-87.6384408"/>
  <node id="11889859561" lat="41.8790298" lon="-87.6384370"/>
  <node id="11889859563" lat="41.8787843" lon="-87.6383632"/>
  <node id="11889859564" lat="41.8788085" lon="-87.6383713"/>
  <node id="11889859565" lat="41.8788015" lon="-87.6383629"/>
  <node id="11889859566" lat="41.8787922" lon="-87.6383595"/>
  <node id="11889859569" lat="41.8784844" lon="-87.6382642"/>
  <node id="11889859570" lat="41.8785187" lon="-87.6382649"/>
  <node id="11889859571" lat="41.8787044" lon="-87.6383244"/>
  <node id="11889859572" lat="41.8787236" lon="-87.6383415"/>
  <node id="11892354805" lat="41.8774446" lon="-87.6379694"/>
  <node id="11892354806" lat="41.8772148" lon="-87.6378977"/>
  <node id="11892354807" lat="41.8774237" lon="-87.6379646"/>
  <node id="11892354808" lat="41.8774234" lon="-87.6379680"/>
  <node id="11892354809" lat="41.8774425" lon="-87.6379852"/>
  <node id="11892354810" lat="41.8774272" lon="-87.6379823"/>
  <node id="11892354811" lat="41.8774795" lon="-87.6379768"/>
  <node id="11892354812" lat="41.8774719" lon="-87.6379768"/>
  <node id="11892354813" lat="41.8774660" lon="-87.6379825"/>
  <node id="11892354814" lat="41.8774587" lon="-87.6379821"/>
  <node id="11892354815" lat="41.8774554" lon="-87.6379861"/>
  <node id="11892354816" lat="41.8774577" lon="-87.6379936"/>
  <node id="11892354817" lat="41.8775048" lon="-87.6380038"/>
  <node id="11892354818" lat="41.8775388" lon="-87.6380060"/>
  <node id="11892354819" lat="41.8775562" lon="-87.6380055"/>
  <node id="11892354820" lat="41.8775701" lon="-87.6380082"/>
  <node id="11892354821" lat="41.8775809" lon="-87.6380064"/>
  <node id="11892354822" lat="41.8775852" lon="-87.6380095"/>
  <node id="11892354823" lat="41.8776000" lon="-87.6380148"/>
  <node id="11892354824" lat="41.8776043" lon="-87.6380015"/>
  <node id="11892354825" lat="41.8776020" lon="-87.6379927"/>
  <node id="11892354826" lat="41.8775760" lon="-87.6379931"/>
  <node id="11892354827" lat="41.8775526" lon="-87.6379900"/>
  <node id="11892354828" lat="41.8775365" lon="-87.6379887"/>
  <node id="11892354829" lat="41.8775243" lon="-87.6379874"/>
  <node id="11892354830" lat="41.8775025" lon="-87.6379803"/>
  <node id="11892354831" lat="41.8774917" lon="-87.6379777"/>
  <node id="11892354832" lat="41.8775072" lon="-87.6380039"/>
  <node id="11892354833" lat="41.8774979" lon="-87.6381100"/>
  <node id="11892354834" lat="41.8774558" lon="-87.6380172"/>
  <node id="11892354835" lat="41.8774333" lon="-87.6380130"/>
  <node id="11892354836" lat="41.8774307" lon="-87.6380372"/>
  <node id="11892354837" lat="41.8774532" lon="-87.6380414"/>
  <node id="11892354838" lat="41.8775638" lon="-87.6380389"/>
  <node id="11892354839" lat="41.8775413" lon="-87.6380347"/>
  <node id="11892354840" lat="41.8775388" lon="-87.6380589"/>
  <node id="11892354841" lat="41.8775613" lon="-87.6380631"/>
  <node id="11892363478" lat="41.8772096" lon="-87.6378953"/>
  <node id="11892363479" lat="41.8772060" lon="-87.6378895"/>
  <node id="11892363480" lat="41.8771996" lon="-87.6378885"/>
  <node id="11892363481" lat="41.8771935" lon="-87.6378901"/>
  <node id="11892363482" lat="41.8771890" lon="-87.6378839"/>
  <node id="11892363483" lat="41.8771793" lon="-87.6378837"/>
  <node id="11892363484" lat="41.8771787" lon="-87.6378887"/>
  <node id="11892363485" lat="41.8771707" lon="-87.6378885"/>
  <node id="11892363486" lat="41.8771668" lon="-87.6378942"/>
  <node id="11935878980" lat="41.8511305" lon="-87.6124159"/>
  <node id="11935879205" lat="41.8510862" lon="-87.6126139"/>
  <node id="11935904965" lat="41.8523108" lon="-87.6131050"/>
  <node id="11936033010" lat="41.8543429" lon="-87.6135633">
    <tag k="amenity" v="loading_dock"/>
    <tag k="ref" v="B3-B9"/>
  </node>
  <node id="11936033011" lat="41.8536972" lon="-87.6133083">
    <tag k="amenity" v="loading_dock"/>
    <tag k="ref" v="A3-A10"/>
  </node>
  <node id="11936033014" lat="41.8546869" lon="-87.6126401">
    <tag k="amenity" v="loading_dock"/>
    <tag k="ref" v="C1"/>
  </node>
  <node id="11936033017" lat="41.8545231" lon="-87.6120289">
    <tag k="entrance" v="yes"/>
    <tag k="ref" v="11"/>
  </node>
  <node id="11936033019" lat="41.8538192" lon="-87.6117502">
    <tag k="entrance" v="yes"/>
    <tag k="ref" v="12"/>
  </node>
  <node id="11936033020" lat="41.8546594" lon="-87.6120828">
    <tag k="amenity" v="loading_dock"/>
    <tag k="ref" v="D1-D7"/>
  </node>
  <node id="11936033021" lat="41.8540056" lon="-87.6118240">
    <tag k="amenity" v="loading_dock"/>
    <tag k="ref" v="E3-E11"/>
  </node>
  <node id="11936033032" lat="41.8526703" lon="-87.6112953">
    <tag k="entrance" v="yes"/>
  </node>
  <node id="11936033033" lat="41.8522436" lon="-87.6127341">
    <tag k="entrance" v="yes"/>
  </node>
  <node id="11936033034" lat="41.8524405" lon="-87.6128120">
    <tag k="entrance" v="yes"/>
  </node>
  <node id="11938569630" lat="41.8547027" lon="-87.6137665"/>
  <node id="11938569632" lat="41.8550496" lon="-87.6121833"/>
  <node id="12252725752" lat="41.8698893" lon="-87.6354530"/>
  <node id="12252725753" lat="41.8697537" lon="-87.6354519"/>
  <node id="12252725754" lat="41.8697515" lon="-87.6356055"/>
  <node id="12252725755" lat="41.8699023" lon="-87.6356006"/>
  <node id="12252725756" lat="41.8699027" lon="-87.6354992"/>
  <node id="12252725757" lat="41.8698807" lon="-87.6354990"/>
  <node id="12252725758" lat="41.8698808" lon="-87.6354773"/>
  <node id="12252725759" lat="41.8698892" lon="-87.6354773"/>
  <node id="12252974632" lat="41.8743457" lon="-87.6356786"/>
  <node id="12253021281" lat="41.8735811" lon="-87.6361984"/>
  <node id="12253454233" lat="41.8720880" lon="-87.6352195"/>
  <node id="12253454234" lat="41.8721834" lon="-87.6352257"/>
  <node id="12264394964" lat="41.8721023" lon="-87.6351884"/>
  <node id="12264394965" lat="41.8720878" lon="-87.6351930"/>
  <node id="12264394966" lat="41.8721976" lon="-87.6351962"/>
  <node id="12264394967" lat="41.8721837" lon="-87.6351884"/>
  <node id="13191091074" lat="41.8546400" lon="-87.6140431"/>
  <node id="13191458770" lat="41.8511190" lon="-87.6124669"/>
  <node id="13191487697" lat="41.8515548" lon="-87.6105110"/>
  <node id="13191487698" lat="41.8515225" lon="-87.6106557"/>
  <node id="13343559511" lat="41.8541707" lon="-87.6138424"/>
  <node id="13343559513" lat="41.8542135" lon="-87.6138603"/>
  <node id="13343566803" lat="41.8541610" lon="-87.6138385"/>
  <way id="136340574">
    <nd ref="7182172046"/>
    <nd ref="13343566803"/>
    <nd ref="13343559511"/>
    <nd ref="2392353577"/>
    <nd ref="13343559513"/>
    <nd ref="13191091074"/>
    <nd ref="7182160960"/>
    <nd ref="7182160961"/>
    <nd ref="7193673164"/>
    <nd ref="11938569630"/>
    <nd ref="11938569632"/>
    <nd ref="7182160959"/>
    <nd ref="7182172053"/>
    <nd ref="269702679"/>
    <nd ref="13191487697"/>
    <nd ref="2392353579"/>
    <nd ref="13191487698"/>
    <nd ref="9451526278"/>
    <nd ref="2040510172"/>
    <nd ref="1427745586"/>
    <nd ref="1427745620"/>
    <nd ref="1427745715"/>
    <nd ref="11935878980"/>
    <nd ref="13191458770"/>
    <nd ref="2392353580"/>
    <nd ref="11935879205"/>
    <nd ref="269702680"/>
    <nd ref="2148393344"/>
    <nd ref="9451526238"/>
    <nd ref="11935904965"/>
    <nd ref="9451526239"/>
    <nd ref="7182172046"/>
    <tag k="addr:city" v="Chicago"/>
    <tag k="addr:housenumber" v="2301"/>
    <tag k="addr:postcode" v="60616"/>
    <tag k="addr:state" v="IL"/>
    <tag k="addr:street" v="South Lake Shore Drive"/>
    <tag k="amenity" v="conference_centre"/>
    <tag k="building" v="exhibition_hall"/>
    <tag k="height" v="30"/>
    <tag k="layer" v="2"/>
    <tag k="name" v="McCormick Place Lakeside Center"/>
  </way>
  <way id="217881358">
    <nd ref="1699197191"/>
    <nd ref="3104991322"/>
    <nd ref="3104991307"/>
    <nd ref="9557183130"/>
    <nd ref="1699197206"/>
    <nd ref="9270459895"/>
    <nd ref="9270459896"/>
    <nd ref="1699197211"/>
    <nd ref="9270459905"/>
    <nd ref="9270459908"/>
    <nd ref="9270459909"/>
    <nd ref="9270459912"/>
    <nd ref="9270459913"/>
    <nd ref="9270459916"/>
    <nd ref="9270504921"/>
    <nd ref="3104991261"/>
    <nd ref="9386851189"/>
    <nd ref="3104991260"/>
    <nd ref="12264394964"/>
    <nd ref="12264394965"/>
    <nd ref="12253454233"/>
    <nd ref="3104991259"/>
    <nd ref="12253454234"/>
    <nd ref="1699197208"/>
    <nd ref="12264394966"/>
    <nd ref="12264394967"/>
    <nd ref="20217535"/>
    <nd ref="8285356481"/>
    <nd ref="20217534"/>
    <nd ref="9557183128"/>
    <nd ref="1699197222"/>
    <nd ref="4035488063"/>
    <nd ref="4035488045"/>
    <nd ref="12252974632"/>
    <nd ref="6987861771"/>
    <nd ref="11874844289"/>
    <nd ref="6987861772"/>
    <nd ref="1699197238"/>
    <nd ref="1699197239"/>
    <nd ref="1699197241"/>
    <nd ref="1699197243"/>
    <nd ref="1699197244"/>
    <nd ref="1699197258"/>
    <nd ref="1699197259"/>
    <nd ref="1699197260"/>
    <nd ref="9239407663"/>
    <nd ref="1699197264"/>
    <nd ref="6988089345"/>
    <nd ref="1699197282"/>
    <nd ref="1699197287"/>
    <nd ref="6988089346"/>
    <nd ref="9239383394"/>
    <nd ref="2207543038"/>
    <nd ref="2207543045"/>
    <nd ref="6624582800"/>
    <nd ref="6624582799"/>
    <nd ref="1699197313"/>
    <nd ref="1699197316"/>
    <nd ref="1699197336"/>
    <nd ref="11838361593"/>
    <nd ref="1699197355"/>
    <nd ref="1699197358"/>
    <nd ref="6988114199"/>
    <nd ref="1699197376"/>
    <nd ref="1699197378"/>
    <nd ref="11037616816"/>
    <nd ref="1699197384"/>
    <nd ref="1605630581"/>
    <nd ref="20217443"/>
    <nd ref="20217442"/>
    <nd ref="6988114256"/>
    <nd ref="9573951660"/>
    <nd ref="1699197437"/>
    <nd ref="6988114259"/>
    <nd ref="20217438"/>
    <nd ref="9678427515"/>
    <nd ref="10925193431"/>
    <nd ref="10925193423"/>
    <nd ref="10929180980"/>
    <nd ref="2271900771"/>
    <nd ref="2271900784"/>
    <nd ref="9678427516"/>
    <nd ref="10925366938"/>
    <nd ref="2271900801"/>
    <nd ref="2271900761"/>
    <nd ref="6988130963"/>
    <nd ref="10925193419"/>
    <nd ref="10929180979"/>
    <nd ref="11885108199"/>
    <nd ref="11885108198"/>
    <nd ref="11885108200"/>
    <nd ref="10922694021"/>
    <nd ref="7015621020"/>
    <nd ref="10929180952"/>
    <nd ref="10929180966"/>
    <nd ref="10929180965"/>
    <nd ref="10929180964"/>
    <nd ref="10929180963"/>
    <nd ref="10929180962"/>
    <nd ref="10929180961"/>
    <nd ref="10929180960"/>
    <nd ref="10929180930"/>
    <nd ref="10929174857"/>
    <nd ref="10929174863"/>
    <nd ref="6423868621"/>
    <nd ref="10929174862"/>
    <nd ref="10929174860"/>
    <nd ref="10929180923"/>
    <nd ref="10929174853"/>
    <nd ref="1699197759"/>
    <nd ref="1699197789"/>
    <nd ref="1699197795"/>
    <nd ref="1699197833"/>
    <nd ref="7015621531"/>
    <nd ref="7015621543"/>
    <nd ref="11851469336"/>
    <nd ref="992939179"/>
    <nd ref="20217391"/>
    <nd ref="11851469335"/>
    <nd ref="11851469332"/>
    <nd ref="11851469331"/>
    <nd ref="1699197829"/>
    <nd ref="1699197793"/>
    <nd ref="1699197786"/>
    <nd ref="11870155603"/>
    <nd ref="11870155601"/>
    <nd ref="1699197783"/>
    <nd ref="10929180922"/>
    <nd ref="7015621500"/>
    <nd ref="1699197752"/>
    <nd ref="1699197729"/>
    <nd ref="4990660934"/>
    <nd ref="11872650977"/>
    <nd ref="11872650978"/>
    <nd ref="11872650979"/>
    <nd ref="11872650983"/>
    <nd ref="11872650986"/>
    <nd ref="11872650982"/>
    <nd ref="11872650987"/>
    <nd ref="11885108191"/>
    <nd ref="1699197679"/>
    <nd ref="11885108187"/>
    <nd ref="11885108186"/>
    <nd ref="1622275023"/>
    <nd ref="11885108182"/>
    <nd ref="11885108174"/>
    <nd ref="992938699"/>
    <nd ref="11885108175"/>
    <nd ref="992938694"/>
    <nd ref="11885108176"/>
    <nd ref="8821671469"/>
    <nd ref="11885108168"/>
    <nd ref="6988130939"/>
    <nd ref="11885108135"/>
    <nd ref="8821671471"/>
    <nd ref="11885108164"/>
    <nd ref="11885108159"/>
    <nd ref="11886792404"/>
    <nd ref="11886792405"/>
    <nd ref="11886792406"/>
    <nd ref="11885108163"/>
    <nd ref="11886792403"/>
    <nd ref="1699197591"/>
    <nd ref="11886773750"/>
    <nd ref="11886773748"/>
    <nd ref="11886773749"/>
    <nd ref="11886773747"/>
    <nd ref="4942700589"/>
    <nd ref="11886773744"/>
    <nd ref="11886773745"/>
    <nd ref="11886773746"/>
    <nd ref="11886773743"/>
    <nd ref="11886792378"/>
    <nd ref="11886792380"/>
    <nd ref="11886792387"/>
    <nd ref="11886792388"/>
    <nd ref="11887871044"/>
    <nd ref="11886792386"/>
    <nd ref="11886773742"/>
    <nd ref="11886792385"/>
    <nd ref="11887871043"/>
    <nd ref="1699197541"/>
    <nd ref="1699197533"/>
    <nd ref="6988114385"/>
    <nd ref="1699197529"/>
    <nd ref="11886773737"/>
    <nd ref="11887890902"/>
    <nd ref="6988114383"/>
    <nd ref="6988114384"/>
    <nd ref="1699197483"/>
    <nd ref="1699197484"/>
    <nd ref="11887871039"/>
    <nd ref="11887871041"/>
    <nd ref="11887871042"/>
    <nd ref="11887871040"/>
    <nd ref="11887871045"/>
    <nd ref="11887871047"/>
    <nd ref="11887871046"/>
    <nd ref="1699197474"/>
    <nd ref="4942700587"/>
    <nd ref="1699197471"/>
    <nd ref="1699197448"/>
    <nd ref="4942700586"/>
    <nd ref="1699197443"/>
    <nd ref="6988114275"/>
    <nd ref="6988114276"/>
    <nd ref="1699197440"/>
    <nd ref="6988114277"/>
    <nd ref="6988114278"/>
    <nd ref="6988114377"/>
    <nd ref="11887871049"/>
    <nd ref="11887871051"/>
    <nd ref="11887871048"/>
    <nd ref="11887871055"/>
    <nd ref="11889859181"/>
    <nd ref="11889859180"/>
    <nd ref="11889859559"/>
    <nd ref="11889859560"/>
    <nd ref="11889859561"/>
    <nd ref="11889859558"/>
    <nd ref="11889859564"/>
    <nd ref="11889859565"/>
    <nd ref="11889859566"/>
    <nd ref="11889859563"/>
    <nd ref="11889859572"/>
    <nd ref="11889859571"/>
    <nd ref="11889859570"/>
    <nd ref="11889859569"/>
    <nd ref="11889859170"/>
    <nd ref="6988114221"/>
    <nd ref="11889859179"/>
    <nd ref="11889832965"/>
    <nd ref="11889832966"/>
    <nd ref="1699197377"/>
    <nd ref="11889832967"/>
    <nd ref="11888240235"/>
    <nd ref="1699197366"/>
    <nd ref="11892354833"/>
    <nd ref="6988114186"/>
    <nd ref="11892354810"/>
    <nd ref="11892354809"/>
    <nd ref="11892354805"/>
    <nd ref="11892354807"/>
    <nd ref="11892354808"/>
    <nd ref="6988089382"/>
    <nd ref="6988089381"/>
    <nd ref="6988089380"/>
    <nd ref="11892354806"/>
    <nd ref="11892363478"/>
    <nd ref="11892363479"/>
    <nd ref="11892363480"/>
    <nd ref="11892363481"/>
    <nd ref="11892363482"/>
    <nd ref="11892363483"/>
    <nd ref="11892363484"/>
    <nd ref="11892363485"/>
    <nd ref="11892363486"/>
    <nd ref="6988089377"/>
    <nd ref="6988089376"/>
    <nd ref="1699197319"/>
    <nd ref="6988089375"/>
    <nd ref="11888240245"/>
    <nd ref="6988089374"/>
    <nd ref="1699197308"/>
    <nd ref="11838361582"/>
    <nd ref="11838349268"/>
    <nd ref="11838349267"/>
    <nd ref="11838361580"/>
    <nd ref="11838361578"/>
    <nd ref="11838361577"/>
    <nd ref="11838361585"/>
    <nd ref="11838361586"/>
    <nd ref="11838361570"/>
    <nd ref="1699197289"/>
    <nd ref="1699197285"/>
    <nd ref="1699197277"/>
    <nd ref="6987861783"/>
    <nd ref="6987861782"/>
    <nd ref="1699197275"/>
    <nd ref="1699197266"/>
    <nd ref="6987861781"/>
    <nd ref="6987861777"/>
    <nd ref="6987861780"/>
    <nd ref="6987861778"/>
    <nd ref="6987903191"/>
    <nd ref="6987903186"/>
    <nd ref="1699197261"/>
    <nd ref="704745514"/>
    <nd ref="6987861784"/>
    <nd ref="1699197251"/>
    <nd ref="1699197242"/>
    <nd ref="6113443153"/>
    <nd ref="9453913873"/>
    <nd ref="6987914951"/>
    <nd ref="11874844283"/>
    <nd ref="1699197237"/>
    <nd ref="6987861770"/>
    <nd ref="1699197228"/>
    <nd ref="9386851172"/>
    <nd ref="12253021281"/>
    <nd ref="6987914954"/>
    <nd ref="9386851173"/>
    <nd ref="1699197218"/>
    <nd ref="11768393793"/>
    <nd ref="11768393794"/>
    <nd ref="11768393792"/>
    <nd ref="1699197209"/>
    <nd ref="9386851174"/>
    <nd ref="1699197193"/>
    <nd ref="1699197189"/>
  </way>
  <way id="746755307">
    <nd ref="6988089325"/>
    <nd ref="6988089326"/>
    <nd ref="6988089327"/>
    <nd ref="6988089328"/>
    <nd ref="6988089329"/>
    <nd ref="6988089331"/>
    <nd ref="6988089325"/>
    <tag k="area" v="yes"/>
    <tag k="floating" v="no"/>
    <tag k="man_made" v="pier"/>
    <tag k="seamark:mooring:category" v="dolphin"/>
    <tag k="seamark:type" v="mooring"/>
  </way>
  <way id="746755308">
    <nd ref="9453913883"/>
    <nd ref="9453913884"/>
    <nd ref="9453913885"/>
    <nd ref="9453913886"/>
    <nd ref="9453913887"/>
    <nd ref="9453913888"/>
    <nd ref="6988089332"/>
    <nd ref="6988089333"/>
    <nd ref="6988089335"/>
    <nd ref="9453913876"/>
    <nd ref="9453913877"/>
    <nd ref="9453913878"/>
    <nd ref="9453913879"/>
    <nd ref="9453913880"/>
    <nd ref="9453913881"/>
    <nd ref="9453913882"/>
    <nd ref="6988089336"/>
    <nd ref="6988089337"/>
    <nd ref="6988089338"/>
    <nd ref="9453913883"/>
    <tag k="area" v="yes"/>
    <tag k="floating" v="no"/>
    <tag k="man_made" v="pier"/>
    <tag k="seamark:mooring:category" v="dolphin"/>
    <tag k="seamark:type" v="mooring"/>
  </way>
  <way id="746755309">
    <nd ref="6988089339"/>
    <nd ref="6988089340"/>
    <nd ref="6988089341"/>
    <nd ref="6988089342"/>
    <nd ref="6988089343"/>
    <nd ref="6988089344"/>
    <nd ref="6988089339"/>
    <tag k="area" v="yes"/>
    <tag k="floating" v="no"/>
    <tag k="man_made" v="pier"/>
    <tag k="seamark:mooring:category" v="dolphin"/>
    <tag k="seamark:type" v="mooring"/>
  </way>
  <way id="746755319">
    <nd ref="9453913866"/>
    <nd ref="9453913867"/>
    <nd ref="9453913868"/>
    <nd ref="9453913869"/>
    <nd ref="9453913870"/>
    <nd ref="9453913871"/>
    <nd ref="9453913872"/>
    <nd ref="6988114206"/>
    <nd ref="6988114207"/>
    <nd ref="6988114208"/>
    <nd ref="9453913860"/>
    <nd ref="9453913861"/>
    <nd ref="9453913862"/>
    <nd ref="9453913863"/>
    <nd ref="9453913864"/>
    <nd ref="9453913865"/>
    <nd ref="6988114209"/>
    <nd ref="6988114210"/>
    <nd ref="6988114211"/>
    <nd ref="9453913866"/>
    <tag k="area" v="yes"/>
    <tag k="floating" v="no"/>
    <tag k="man_made" v="pier"/>
    <tag k="seamark:mooring:category" v="dolphin"/>
    <tag k="seamark:type" v="mooring"/>
  </way>
  <way id="746755320">
    <nd ref="9453913853"/>
    <nd ref="9453913854"/>
    <nd ref="9453913855"/>
    <nd ref="9453913856"/>
    <nd ref="9453913857"/>
    <nd ref="9453913858"/>
    <nd ref="9453913859"/>
    <nd ref="6988114212"/>
    <nd ref="6988114213"/>
    <nd ref="6988114214"/>
    <nd ref="9453913847"/>
    <nd ref="9453913848"/>
    <nd ref="9453913849"/>
    <nd ref="9453913850"/>
    <nd ref="9453913851"/>
    <nd ref="9453913852"/>
    <nd ref="6988114215"/>
    <nd ref="6988114216"/>
    <nd ref="6988114217"/>
    <nd ref="9453913853"/>
    <tag k="area" v="yes"/>
    <tag k="floating" v="no"/>
    <tag k="man_made" v="pier"/>
    <tag k="seamark:mooring:category" v="dolphin"/>
    <tag k="seamark:type" v="mooring"/>
  </way>
  <way id="746755356">
    <nd ref="6988114396"/>
    <nd ref="6988114397"/>
    <nd ref="6988114398"/>
    <nd ref="6988114399"/>
    <nd ref="6988114400"/>
    <nd ref="6988114401"/>
    <nd ref="6988114396"/>
    <tag k="area" v="yes"/>
    <tag k="floating" v="no"/>
    <tag k="man_made" v="pier"/>
    <tag k="seamark:mooring:category" v="dolphin"/>
    <tag k="seamark:type" v="mooring"/>
  </way>
  <way id="746755357">
    <nd ref="6988114402"/>
    <nd ref="6988114403"/>
    <nd ref="6988114404"/>
    <nd ref="6988114405"/>
    <nd ref="6988114406"/>
    <nd ref="6988114407"/>
    <nd ref="6988114402"/>
    <tag k="area" v="yes"/>
    <tag k="floating" v="no"/>
    <tag k="man_made" v="pier"/>
    <tag k="seamark:mooring:category" v="dolphin"/>
    <tag k="seamark:type" v="mooring"/>
  </way>
  <way id="746755358">
    <nd ref="6988114408"/>
    <nd ref="6988114409"/>
    <nd ref="6988114410"/>
    <nd ref="6988114411"/>
    <nd ref="6988114412"/>
    <nd ref="6988114413"/>
    <nd ref="6988114408"/>
    <tag k="area" v="yes"/>
    <tag k="floating" v="no"/>
    <tag k="man_made" v="pier"/>
    <tag k="seamark:mooring:category" v="dolphin"/>
    <tag k="seamark:type" v="mooring"/>
  </way>
  <way id="746755359">
    <nd ref="6988114414"/>
    <nd ref="6988114415"/>
    <nd ref="6988114416"/>
    <nd ref="6988114417"/>
    <nd ref="6988114418"/>
    <nd ref="6988114419"/>
    <nd ref="6988114414"/>
    <tag k="area" v="yes"/>
    <tag k="floating" v="no"/>
    <tag k="man_made" v="pier"/>
    <tag k="seamark:mooring:category" v="dolphin"/>
    <tag k="seamark:type" v="mooring"/>
  </way>
  <way id="1004775756">
    <nd ref="9270459860"/>
    <nd ref="9270459894"/>
    <nd ref="9270459879"/>
    <nd ref="9270459880"/>
    <nd ref="9270459881"/>
    <nd ref="9270459882"/>
    <nd ref="9270459883"/>
    <nd ref="9270459884"/>
    <nd ref="9270459885"/>
    <nd ref="9270459886"/>
    <nd ref="9270459887"/>
    <nd ref="9270459888"/>
    <nd ref="9270459889"/>
    <nd ref="9270459890"/>
    <nd ref="9270504935"/>
    <nd ref="3104991292"/>
    <nd ref="9270459891"/>
    <nd ref="9270459892"/>
    <nd ref="9270459893"/>
    <nd ref="9270504947"/>
    <nd ref="9270504948"/>
    <nd ref="9270459852"/>
    <nd ref="9270459853"/>
    <nd ref="9270459854"/>
    <nd ref="9270504939"/>
    <nd ref="9270504937"/>
    <nd ref="9270504936"/>
    <nd ref="9270459858"/>
    <nd ref="9270459859"/>
    <nd ref="9270459875"/>
    <nd ref="9270459874"/>
    <nd ref="9270459873"/>
    <nd ref="9270459871"/>
    <nd ref="9270459872"/>
    <nd ref="9270459869"/>
    <nd ref="9270459868"/>
    <nd ref="9270459870"/>
    <nd ref="9270459855"/>
    <nd ref="9270459860"/>
  </way>
  <way id="1025043590">
    <nd ref="9451526232"/>
    <nd ref="9451526250"/>
    <nd ref="11936033014"/>
    <nd ref="9451526233"/>
    <nd ref="11936033020"/>
    <nd ref="11936033017"/>
    <nd ref="11936033021"/>
    <nd ref="11936033019"/>
    <nd ref="11936033032"/>
    <nd ref="9451526234"/>
    <nd ref="9451526277"/>
    <nd ref="9451526276"/>
    <nd ref="9451526235"/>
    <nd ref="11936033033"/>
    <nd ref="9451526237"/>
    <nd ref="11235826908"/>
    <nd ref="9451526236"/>
    <nd ref="11936033034"/>
    <nd ref="9451526246"/>
    <nd ref="11936033011"/>
    <nd ref="9451526248"/>
    <nd ref="11936033010"/>
    <nd ref="9451526232"/>
    <tag k="building:part" v="yes"/>
    <tag k="height" v="100"/>
  </way>
  <way id="1025326808">
    <nd ref="9453900225"/>
    <nd ref="9453900226"/>
    <nd ref="9453900227"/>
    <nd ref="9453900228"/>
    <nd ref="9453900229"/>
    <nd ref="9453900230"/>
    <nd ref="9453900231"/>
    <nd ref="9453830713"/>
    <nd ref="9453830714"/>
    <nd ref="9453900217"/>
    <nd ref="9453900218"/>
    <nd ref="9453900219"/>
    <nd ref="9453900220"/>
    <nd ref="9453900221"/>
    <nd ref="9453900222"/>
    <nd ref="9453900223"/>
    <nd ref="9453900224"/>
    <nd ref="9453830715"/>
    <nd ref="9453830716"/>
    <nd ref="9453900225"/>
    <tag k="area" v="yes"/>
    <tag k="floating" v="no"/>
    <tag k="man_made" v="pier"/>
    <tag k="seamark:mooring:category" v="dolphin"/>
    <tag k="seamark:type" v="mooring"/>
  </way>
  <way id="1025326809">
    <nd ref="9453900232"/>
    <nd ref="9453900233"/>
    <nd ref="9453900234"/>
    <nd ref="9453900235"/>
    <nd ref="9453900236"/>
    <nd ref="9453900237"/>
    <nd ref="9453900238"/>
    <nd ref="9453900239"/>
    <nd ref="9453900240"/>
    <nd ref="9453900241"/>
    <nd ref="9453900242"/>
    <nd ref="9453900243"/>
    <nd ref="9453900244"/>
    <nd ref="9453900245"/>
    <nd ref="9453900246"/>
    <nd ref="9453900247"/>
    <nd ref="9453900248"/>
    <nd ref="9453900249"/>
    <nd ref="9453900250"/>
    <nd ref="9453900232"/>
    <tag k="area" v="yes"/>
    <tag k="floating" v="no"/>
    <tag k="man_made" v="pier"/>
    <tag k="seamark:mooring:category" v="dolphin"/>
    <tag k="seamark:type" v="mooring"/>
  </way>
  <way id="1025326810">
    <nd ref="9453900251"/>
    <nd ref="9453900252"/>
    <nd ref="9453900253"/>
    <nd ref="9453900254"/>
    <nd ref="9453900255"/>
    <nd ref="9453900256"/>
    <nd ref="9453900257"/>
    <nd ref="9453900258"/>
    <nd ref="9453900259"/>
    <nd ref="9453900260"/>
    <nd ref="9453900261"/>
    <nd ref="9453900262"/>
    <nd ref="9453900263"/>
    <nd ref="9453900264"/>
    <nd ref="9453900265"/>
    <nd ref="9453900266"/>
    <nd ref="9453900267"/>
    <nd ref="9453900268"/>
    <nd ref="9453900269"/>
    <nd ref="9453900251"/>
    <tag k="area" v="yes"/>
    <tag k="floating" v="no"/>
    <tag k="man_made" v="pier"/>
    <tag k="seamark:mooring:category" v="dolphin"/>
    <tag k="seamark:type" v="mooring"/>
  </way>
  <way id="1025326811">
    <nd ref="9453900270"/>
    <nd ref="9453900271"/>
    <nd ref="9453900272"/>
    <nd ref="9453900273"/>
    <nd ref="9453900274"/>
    <nd ref="9453900275"/>
    <nd ref="9453900276"/>
    <nd ref="9453900277"/>
    <nd ref="9453900278"/>
    <nd ref="9453900279"/>
    <nd ref="9453900280"/>
    <nd ref="9453900281"/>
    <nd ref="9453900282"/>
    <nd ref="9453900283"/>
    <nd ref="9453900284"/>
    <nd ref="9453900285"/>
    <nd ref="9453900286"/>
    <nd ref="9453900287"/>
    <nd ref="9453900288"/>
    <nd ref="9453900270"/>
    <tag k="area" v="yes"/>
    <tag k="floating" v="no"/>
    <tag k="man_made" v="pier"/>
    <tag k="seamark:mooring:category" v="dolphin"/>
    <tag k="seamark:type" v="mooring"/>
  </way>
  <way id="1025329446">
    <nd ref="9453913889"/>
    <nd ref="9453913890"/>
    <nd ref="9453913891"/>
    <nd ref="9453913892"/>
    <nd ref="9453913893"/>
    <nd ref="9453913894"/>
    <nd ref="9453913895"/>
    <nd ref="9453913896"/>
    <nd ref="9453913897"/>
    <nd ref="9453913898"/>
    <nd ref="9453913899"/>
    <nd ref="9453913900"/>
    <nd ref="9453913901"/>
    <nd ref="9453913902"/>
    <nd ref="9453913903"/>
    <nd ref="9453913904"/>
    <nd ref="9453913905"/>
    <nd ref="9453913906"/>
    <nd ref="9453913907"/>
    <nd ref="9453913889"/>
    <tag k="area" v="yes"/>
    <tag k="floating" v="no"/>
    <tag k="man_made" v="pier"/>
    <tag k="seamark:mooring:category" v="dolphin"/>
    <tag k="seamark:type" v="mooring"/>
  </way>
  <way id="1176008400">
    <nd ref="10927074432"/>
    <nd ref="10927074433"/>
    <nd ref="10927074434"/>
    <nd ref="10927074435"/>
    <nd ref="10927074436"/>
    <nd ref="10927074437"/>
    <nd ref="10927074432"/>
    <tag k="area" v="yes"/>
    <tag k="floating" v="no"/>
    <tag k="man_made" v="pier"/>
    <tag k="seamark:mooring:category" v="dolphin"/>
    <tag k="seamark:type" v="mooring"/>
  </way>
  <way id="1176285158">
    <nd ref="10929174877"/>
    <nd ref="10929174878"/>
    <nd ref="10929174879"/>
    <nd ref="10929174880"/>
    <nd ref="10929174881"/>
    <nd ref="10929174882"/>
    <nd ref="10929174883"/>
    <nd ref="10929174865"/>
    <nd ref="10929174866"/>
    <nd ref="10929174869"/>
    <nd ref="10929174870"/>
    <nd ref="10929174871"/>
    <nd ref="10929174872"/>
    <nd ref="10929174873"/>
    <nd ref="10929174874"/>
    <nd ref="10929174875"/>
    <nd ref="10929174876"/>
    <nd ref="10929174867"/>
    <nd ref="10929174868"/>
    <nd ref="10929174877"/>
    <tag k="area" v="yes"/>
    <tag k="floating" v="no"/>
    <tag k="man_made" v="pier"/>
    <tag k="seamark:mooring:category" v="dolphin"/>
    <tag k="seamark:type" v="mooring"/>
  </way>
  <way id="1176285159">
    <nd ref="10929174884"/>
    <nd ref="10929174885"/>
    <nd ref="10929174886"/>
    <nd ref="10929174887"/>
    <nd ref="10929174888"/>
    <nd ref="10929174889"/>
    <nd ref="10929174890"/>
    <nd ref="10929174891"/>
    <nd ref="10929174892"/>
    <nd ref="10929174893"/>
    <nd ref="10929174894"/>
    <nd ref="10929174895"/>
    <nd ref="10929174896"/>
    <nd ref="10929174897"/>
    <nd ref="10929174898"/>
    <nd ref="10929174899"/>
    <nd ref="10929174900"/>
    <nd ref="10929174901"/>
    <nd ref="10929174902"/>
    <nd ref="10929174884"/>
    <tag k="area" v="yes"/>
    <tag k="floating" v="no"/>
    <tag k="man_made" v="pier"/>
    <tag k="seamark:mooring:category" v="dolphin"/>
    <tag k="seamark:type" v="mooring"/>
  </way>
  <way id="1176285160">
    <nd ref="11870155594"/>
    <nd ref="11870155595"/>
    <nd ref="11870155596"/>
    <nd ref="11870155597"/>
    <nd ref="11870155598"/>
    <nd ref="11870155599"/>
    <nd ref="11870155600"/>
    <nd ref="10929180910"/>
    <nd ref="10929180911"/>
    <nd ref="11870155587"/>
    <nd ref="11870155588"/>
    <nd ref="11870155589"/>
    <nd ref="11870155590"/>
    <nd ref="11870155591"/>
    <nd ref="11870155592"/>
    <nd ref="11870155593"/>
    <nd ref="10929180915"/>
    <nd ref="10929180916"/>
    <nd ref="10929180917"/>
    <nd ref="11870155594"/>
    <tag k="area" v="yes"/>
    <tag k="floating" v="no"/>
    <tag k="man_made" v="pier"/>
    <tag k="seamark:mooring:category" v="dolphin"/>
    <tag k="seamark:type" v="mooring"/>
  </way>
  <way id="1176285171">
    <nd ref="10929180993"/>
    <nd ref="10929180994"/>
    <nd ref="10929180995"/>
    <nd ref="10929180996"/>
    <nd ref="10929180997"/>
    <nd ref="10929180998"/>
    <nd ref="10929180999"/>
    <nd ref="10929180981"/>
    <nd ref="10929180982"/>
    <nd ref="10929180985"/>
    <nd ref="10929180986"/>
    <nd ref="10929180987"/>
    <nd ref="10929180988"/>
    <nd ref="10929180989"/>
    <nd ref="10929180990"/>
    <nd ref="10929180991"/>
    <nd ref="10929180992"/>
    <nd ref="10929180983"/>
    <nd ref="10929180984"/>
    <nd ref="10929180993"/>
    <tag k="area" v="yes"/>
    <tag k="floating" v="no"/>
    <tag k="man_made" v="pier"/>
    <tag k="seamark:mooring:category" v="dolphin"/>
    <tag k="seamark:type" v="mooring"/>
  </way>
  <way id="1176285172">
    <nd ref="10929181014"/>
    <nd ref="11887871037"/>
    <nd ref="10929181015"/>
    <nd ref="10929181016"/>
    <nd ref="10929181017"/>
    <nd ref="10929181018"/>
    <nd ref="10929181014"/>
    <tag k="area" v="yes"/>
    <tag k="floating" v="no"/>
    <tag k="man_made" v="pier"/>
    <tag k="seamark:mooring:category" v="dolphin"/>
    <tag k="seamark:type" v="mooring"/>
  </way>
  <way id="1176285173">
    <nd ref="10929181019"/>
    <nd ref="10929181020"/>
    <nd ref="10929181021"/>
    <nd ref="10929181022"/>
    <nd ref="10929181023"/>
    <nd ref="10929181024"/>
    <nd ref="10929181025"/>
    <nd ref="10929181026"/>
    <nd ref="10929181027"/>
    <nd ref="10929181028"/>
    <nd ref="10929181029"/>
    <nd ref="10929181030"/>
    <nd ref="10929181031"/>
    <nd ref="10929181032"/>
    <nd ref="10929181033"/>
    <nd ref="10929181034"/>
    <nd ref="10929181035"/>
    <nd ref="10929181036"/>
    <nd ref="10929181037"/>
    <nd ref="10929181019"/>
    <tag k="area" v="yes"/>
    <tag k="floating" v="no"/>
    <tag k="man_made" v="pier"/>
    <tag k="seamark:mooring:category" v="dolphin"/>
    <tag k="seamark:type" v="mooring"/>
  </way>
  <way id="1176285174">
    <nd ref="10929181038"/>
    <nd ref="10929181039"/>
    <nd ref="10929181040"/>
    <nd ref="10929181041"/>
    <nd ref="10929181042"/>
    <nd ref="10929181043"/>
    <nd ref="10929181044"/>
    <nd ref="10929181045"/>
    <nd ref="10929181046"/>
    <nd ref="10929181047"/>
    <nd ref="10929181048"/>
    <nd ref="10929181049"/>
    <nd ref="10929181050"/>
    <nd ref="10929181051"/>
    <nd ref="10929181052"/>
    <nd ref="10929181053"/>
    <nd ref="10929181054"/>
    <nd ref="10929181055"/>
    <nd ref="10929181056"/>
    <nd ref="10929181038"/>
    <tag k="area" v="yes"/>
    <tag k="floating" v="no"/>
    <tag k="man_made" v="pier"/>
    <tag k="seamark:mooring:category" v="dolphin"/>
    <tag k="seamark:type" v="mooring"/>
  </way>
  <way id="1176285175">
    <nd ref="10929181057"/>
    <nd ref="10929181058"/>
    <nd ref="10929181059"/>
    <nd ref="10929181060"/>
    <nd ref="10929181061"/>
    <nd ref="10929181062"/>
    <nd ref="10929181063"/>
    <nd ref="10929181064"/>
    <nd ref="10929181065"/>
    <nd ref="10929181066"/>
    <nd ref="10929181067"/>
    <nd ref="10929181068"/>
    <nd ref="10929181069"/>
    <nd ref="10929181070"/>
    <nd ref="10929181071"/>
    <nd ref="10929181072"/>
    <nd ref="10929181073"/>
    <nd ref="10929181074"/>
    <nd ref="10929181075"/>
    <nd ref="10929181057"/>
    <tag k="area" v="yes"/>
    <tag k="floating" v="no"/>
    <tag k="man_made" v="pier"/>
    <tag k="seamark:mooring:category" v="dolphin"/>
    <tag k="seamark:type" v="mooring"/>
  </way>
  <way id="1176285176">
    <nd ref="10929181076"/>
    <nd ref="10929181077"/>
    <nd ref="10929181078"/>
    <nd ref="10929181079"/>
    <nd ref="10929181080"/>
    <nd ref="10929181081"/>
    <nd ref="10929181082"/>
    <nd ref="10929181083"/>
    <nd ref="10929181084"/>
    <nd ref="10929181085"/>
    <nd ref="10929181086"/>
    <nd ref="10929181087"/>
    <nd ref="10929181088"/>
    <nd ref="10929181089"/>
    <nd ref="10929181090"/>
    <nd ref="10929181091"/>
    <nd ref="10929181092"/>
    <nd ref="10929181093"/>
    <nd ref="10929181094"/>
    <nd ref="10929181076"/>
    <tag k="area" v="yes"/>
    <tag k="floating" v="no"/>
    <tag k="man_made" v="pier"/>
    <tag k="seamark:mooring:category" v="dolphin"/>
    <tag k="seamark:type" v="mooring"/>
  </way>
  <way id="1176285177">
    <nd ref="10929181095"/>
    <nd ref="10929181096"/>
    <nd ref="10929181097"/>
    <nd ref="10929181098"/>
    <nd ref="10929181099"/>
    <nd ref="10929181100"/>
    <nd ref="10929181101"/>
    <nd ref="10929181102"/>
    <nd ref="10929181103"/>
    <nd ref="10929181104"/>
    <nd ref="10929181105"/>
    <nd ref="10929181106"/>
    <nd ref="10929181107"/>
    <nd ref="10929181108"/>
    <nd ref="10929181109"/>
    <nd ref="10929181110"/>
    <nd ref="10929181111"/>
    <nd ref="10929181112"/>
    <nd ref="10929181113"/>
    <nd ref="10929181095"/>
    <tag k="area" v="yes"/>
    <tag k="floating" v="no"/>
    <tag k="man_made" v="pier"/>
    <tag k="seamark:mooring:category" v="dolphin"/>
    <tag k="seamark:type" v="mooring"/>
  </way>
  <way id="1176285178">
    <nd ref="10929181114"/>
    <nd ref="10929181115"/>
    <nd ref="10929181116"/>
    <nd ref="10929181117"/>
    <nd ref="10929181118"/>
    <nd ref="10929181119"/>
    <nd ref="10929181120"/>
    <nd ref="10929181121"/>
    <nd ref="10929181122"/>
    <nd ref="10929181123"/>
    <nd ref="10929181124"/>
    <nd ref="10929181125"/>
    <nd ref="10929181126"/>
    <nd ref="10929181127"/>
    <nd ref="10929181128"/>
    <nd ref="10929181129"/>
    <nd ref="10929181130"/>
    <nd ref="10929181131"/>
    <nd ref="10929181132"/>
    <nd ref="10929181114"/>
    <tag k="area" v="yes"/>
    <tag k="floating" v="no"/>
    <tag k="man_made" v="pier"/>
    <tag k="seamark:mooring:category" v="dolphin"/>
    <tag k="seamark:type" v="mooring"/>
  </way>
  <way id="1176285179">
    <nd ref="10929181133"/>
    <nd ref="10929181134"/>
    <nd ref="10929181135"/>
    <nd ref="10929181136"/>
    <nd ref="10929181137"/>
    <nd ref="10929181138"/>
    <nd ref="10929181139"/>
    <nd ref="10929181140"/>
    <nd ref="10929181141"/>
    <nd ref="10929181142"/>
    <nd ref="10929181143"/>
    <nd ref="10929181144"/>
    <nd ref="10929181145"/>
    <nd ref="10929181146"/>
    <nd ref="10929181147"/>
    <nd ref="10929181148"/>
    <nd ref="10929181149"/>
    <nd ref="10929181150"/>
    <nd ref="10929181151"/>
    <nd ref="10929181133"/>
    <tag k="area" v="yes"/>
    <tag k="floating" v="no"/>
    <tag k="man_made" v="pier"/>
    <tag k="seamark:mooring:category" v="dolphin"/>
    <tag k="seamark:type" v="mooring"/>
  </way>
  <way id="1181791576">
    <nd ref="10974049471"/>
    <nd ref="10974049472"/>
    <nd ref="10974049473"/>
    <nd ref="10974049474"/>
    <nd ref="10974049475"/>
    <nd ref="10974049476"/>
    <nd ref="10974049471"/>
    <tag k="area" v="yes"/>
    <tag k="floating" v="no"/>
    <tag k="man_made" v="pier"/>
    <tag k="seamark:mooring:category" v="dolphin"/>
    <tag k="seamark:type" v="mooring"/>
  </way>
  <way id="1181791577">
    <nd ref="10974049477"/>
    <nd ref="10974049478"/>
    <nd ref="10974049479"/>
    <nd ref="11887871036"/>
    <nd ref="10974049480"/>
    <nd ref="10974049481"/>
    <nd ref="10974049477"/>
    <tag k="area" v="yes"/>
    <tag k="floating" v="no"/>
    <tag k="man_made" v="pier"/>
    <tag k="seamark:mooring:category" v="dolphin"/>
    <tag k="seamark:type" v="mooring"/>
  </way>
  <way id="1267036928">
    <nd ref="11768393801"/>
    <nd ref="11768393802"/>
    <nd ref="11768393803"/>
    <nd ref="11768393804"/>
    <nd ref="11768393805"/>
    <nd ref="11768393806"/>
    <nd ref="11768393801"/>
    <tag k="area" v="yes"/>
    <tag k="floating" v="no"/>
    <tag k="man_made" v="pier"/>
    <tag k="seamark:mooring:category" v="dolphin"/>
    <tag k="seamark:type" v="mooring"/>
  </way>
  <way id="1267036929">
    <nd ref="11768393807"/>
    <nd ref="11768393808"/>
    <nd ref="11768393809"/>
    <nd ref="11768393810"/>
    <nd ref="11768393811"/>
    <nd ref="11768393812"/>
    <nd ref="11768393807"/>
    <tag k="area" v="yes"/>
    <tag k="floating" v="no"/>
    <tag k="man_made" v="pier"/>
    <tag k="seamark:mooring:category" v="dolphin"/>
    <tag k="seamark:type" v="mooring"/>
  </way>
  <way id="1280737573">
    <nd ref="11887871030"/>
    <nd ref="11887871031"/>
    <nd ref="11887871032"/>
    <nd ref="11887871033"/>
    <nd ref="11887871034"/>
    <nd ref="11887871035"/>
    <nd ref="11887871030"/>
    <tag k="area" v="yes"/>
    <tag k="floating" v="no"/>
    <tag k="man_made" v="pier"/>
    <tag k="seamark:mooring:category" v="dolphin"/>
    <tag k="seamark:type" v="mooring"/>
  </way>
  <way id="1281295539">
    <nd ref="11892354811"/>
    <nd ref="11892354812"/>
    <nd ref="11892354813"/>
    <nd ref="11892354814"/>
    <nd ref="11892354815"/>
    <nd ref="11892354816"/>
    <nd ref="11892354817"/>
    <nd ref="11892354832"/>
    <nd ref="11892354818"/>
    <nd ref="11892354819"/>
    <nd ref="11892354820"/>
    <nd ref="11892354821"/>
    <nd ref="11892354822"/>
    <nd ref="11892354823"/>
    <nd ref="11892354824"/>
    <nd ref="11892354825"/>
    <nd ref="11892354826"/>
    <nd ref="11892354827"/>
    <nd ref="11892354828"/>
    <nd ref="11892354829"/>
    <nd ref="11892354830"/>
    <nd ref="11892354831"/>
    <nd ref="11892354811"/>
  </way>
  <way id="1281295541">
    <nd ref="11892354834"/>
    <nd ref="11892354835"/>
    <nd ref="11892354836"/>
    <nd ref="11892354837"/>
    <nd ref="11892354834"/>
    <tag k="man_made" v="pillar"/>
  </way>
  <way id="1281295542">
    <nd ref="11892354838"/>
    <nd ref="11892354839"/>
    <nd ref="11892354840"/>
    <nd ref="11892354841"/>
    <nd ref="11892354838"/>
    <tag k="man_made" v="pillar"/>
  </way>
  <way id="1324093714">
    <nd ref="12252725752"/>
    <nd ref="12252725753"/>
    <nd ref="12252725754"/>
    <nd ref="12252725755"/>
    <nd ref="12252725756"/>
    <nd ref="12252725757"/>
    <nd ref="12252725758"/>
    <nd ref="12252725759"/>
    <nd ref="12252725752"/>
  </way>

</osm>
