<?xml version="1.0" encoding="UTF-8"?>
<osm version="0.6" generator="Overpass API 0.7.62.8 e802775f">
<note>The data included in this document is from www.openstreetmap.org. The data is made available under ODbL.</note>
<meta osm_base="2026-01-18T01:56:02Z"/>

  <node id="9738394841" lat="35.2219016" lon="-80.8554080"/>
  <node id="9738394842" lat="35.2218137" lon="-80.8555265"/>
  <node id="9738394843" lat="35.2219549" lon="-80.8556837"/>
  <node id="9738394844" lat="35.2220429" lon="-80.8555652"/>
  <node id="10983333106" lat="35.2245377" lon="-80.8348566"/>
  <node id="10983333107" lat="35.2246070" lon="-80.8347710"/>
  <node id="10983333108" lat="35.2245771" lon="-80.8347347"/>
  <node id="10983333109" lat="35.2245078" lon="-80.8348203"/>
  <node id="10983333110" lat="35.2246381" lon="-80.8347352"/>
  <node id="10983333111" lat="35.2247040" lon="-80.8346511"/>
  <node id="10983333112" lat="35.2246743" lon="-80.8346161"/>
  <node id="10983333113" lat="35.2246084" lon="-80.8347002"/>
  <way id="1059952249">
    <nd ref="9738394841"/>
    <nd ref="9738394842"/>
    <nd ref="9738394843"/>
    <nd ref="9738394844"/>
    <nd ref="9738394841"/>
  </way>
  <way id="1182802661">
    <nd ref="10983333106"/>
    <nd ref="10983333107"/>
    <nd ref="10983333108"/>
    <nd ref="10983333109"/>
    <nd ref="10983333106"/>
  </way>
  <way id="1182802662">
    <nd ref="10983333110"/>
    <nd ref="10983333111"/>
    <nd ref="10983333112"/>
    <nd ref="10983333113"/>
    <nd ref="10983333110"/>
  </way>

</osm>
