<?xml version="1.0" encoding="UTF-8"?>
<osm version="0.6" generator="Overpass API 0.7.62.8 e802775f">
<note>The data included in this document is from www.openstreetmap.org. The data is made available under ODbL.</note>
<meta osm_base="2026-01-18T02:05:55Z"/>

  <node id="2748017986" lat="33.7911562" lon="-84.4011956"/>
  <node id="2748017987" lat="33.7911563" lon="-84.4012352"/>
  <node id="2748017989" lat="33.7911630" lon="-84.4012191"/>
  <node id="2748017992" lat="33.7911673" lon="-84.4011725"/>
  <node id="2748017997" lat="33.7911789" lon="-84.4011805"/>
  <node id="2748018001" lat="33.7911835" lon="-84.4012541"/>
  <node id="2748018005" lat="33.7911900" lon="-84.4012346"/>
  <node id="2748018013" lat="33.7912099" lon="-84.4008964"/>
  <node id="2748018019" lat="33.7912501" lon="-84.4008125"/>
  <node id="2748018020" lat="33.7912508" lon="-84.4012849"/>
  <node id="2748018021" lat="33.7912525" lon="-84.4012773"/>
  <node id="2748018023" lat="33.7912674" lon="-84.4012967"/>
  <node id="2748018029" lat="33.7912889" lon="-84.4009507"/>
  <node id="2748018030" lat="33.7912919" lon="-84.4012907"/>
  <node id="2748018031" lat="33.7912948" lon="-84.4012607"/>
  <node id="2748018034" lat="33.7913032" lon="-84.4012658"/>
  <node id="2748018081" lat="33.7914042" lon="-84.4010357"/>
  <node id="2748018083" lat="33.7914118" lon="-84.4010418"/>
  <node id="2748018092" lat="33.7914460" lon="-84.4009755"/>
  <node id="2748018104" lat="33.7914896" lon="-84.4010054"/>
  <node id="2748018108" lat="33.7915006" lon="-84.4009846"/>
  <way id="269640236">
    <nd ref="2748018108"/>
    <nd ref="2748018104"/>
    <nd ref="2748018092"/>
    <nd ref="2748018083"/>
    <nd ref="2748018081"/>
    <nd ref="2748018031"/>
    <nd ref="2748018034"/>
    <nd ref="2748018030"/>
    <nd ref="2748018023"/>
    <nd ref="2748018020"/>
    <nd ref="2748018021"/>
    <nd ref="2748018005"/>
    <nd ref="2748018001"/>
    <nd ref="2748017987"/>
    <nd ref="2748017989"/>
    <nd ref="2748017986"/>
    <nd ref="2748017992"/>
    <nd ref="2748017997"/>
    <nd ref="2748018029"/>
    <nd ref="2748018013"/>
    <nd ref="2748018019"/>
    <nd ref="2748018108"/>
  </way>

</osm>
