<?xml version="1.0" encoding="UTF-8"?>
<osm version="0.6" generator="Overpass API 0.7.62.8 e802775f">
<note>The data included in this document is from www.openstreetmap.org. The data is made available under ODbL.</note>
<meta osm_base="2026-01-18T01:58:05Z"/>

  <node id="4256819881" lat="34.0548564" lon="-118.2604707"/>
  <node id="4256819996" lat="34.0549636" lon="-118.2607251"/>
  <node id="4256820025" lat="34.0551100" lon="-118.2608853"/>
  <node id="4256820046" lat="34.0551670" lon="-118.2610201"/>
  <node id="4256820048" lat="34.0551740" lon="-118.2602802"/>
  <node id="4256820066" lat="34.0552802" lon="-118.2605346"/>
  <node id="4256820069" lat="34.0553014" lon="-118.2607685"/>
  <node id="4256820102" lat="34.0553584" lon="-118.2609032"/>
  <node id="4269944456" lat="34.0499302" lon="-118.2398166"/>
  <node id="4269944462" lat="34.0499425" lon="-118.2398043"/>
  <node id="4269944473" lat="34.0499671" lon="-118.2398703"/>
  <node id="4269944479" lat="34.0499795" lon="-118.2398581"/>
  <node id="4271752366" lat="34.0465414" lon="-118.2601301"/>
  <node id="4271752595" lat="34.0466127" lon="-118.2600628"/>
  <node id="4271752597" lat="34.0466149" lon="-118.2602410"/>
  <node id="4271752616" lat="34.0466590" lon="-118.2601989"/>
  <node id="4271752630" lat="34.0466909" lon="-118.2602469"/>
  <node id="4271752647" lat="34.0467168" lon="-118.2602221"/>
  <node id="6731686485" lat="34.0551987" lon="-118.2610008"/>
  <node id="6731686487" lat="34.0551942" lon="-118.2608339"/>
  <node id="6731686488" lat="34.0551059" lon="-118.2606396"/>
  <node id="6731686492" lat="34.0548862" lon="-118.2604536"/>
  <node id="6731686502" lat="34.0551510" lon="-118.2602940"/>
  <node id="6731686505" lat="34.0551478" lon="-118.2606144"/>
  <node id="6731686506" lat="34.0552241" lon="-118.2608157"/>
  <node id="6731686508" lat="34.0553163" lon="-118.2609289"/>
  <way id="426371940">
    <nd ref="4256820069"/>
    <nd ref="4256820102"/>
    <nd ref="6731686508"/>
    <nd ref="6731686485"/>
    <nd ref="4256820046"/>
    <nd ref="4256820025"/>
    <nd ref="6731686487"/>
    <nd ref="6731686506"/>
    <nd ref="4256820069"/>
  </way>
  <way id="426371942">
    <nd ref="4256820048"/>
    <nd ref="4256820066"/>
    <nd ref="6731686505"/>
    <nd ref="6731686488"/>
    <nd ref="4256819996"/>
    <nd ref="4256819881"/>
    <nd ref="6731686492"/>
    <nd ref="6731686502"/>
    <nd ref="4256820048"/>
  </way>
  <way id="427817478">
    <nd ref="4269944462"/>
    <nd ref="4269944479"/>
    <nd ref="4269944473"/>
    <nd ref="4269944456"/>
    <nd ref="4269944462"/>
  </way>
  <way id="428021699">
    <nd ref="4271752595"/>
    <nd ref="4271752647"/>
    <nd ref="4271752630"/>
    <nd ref="4271752616"/>
    <nd ref="4271752597"/>
    <nd ref="4271752366"/>
    <nd ref="4271752595"/>
  </way>

</osm>
